<?xml version="1.0" encoding="UTF-8"?>
<gpx version="1.1" creator="Apple Health Export" xmlns="http://www.topografix.com/GPX/1/1" xmlns:xsi="http://www.w3.org/2001/XMLSchema-instance" xsi:schemaLocation="http://www.topografix.com/GPX/1/1 http://www.topografix.com/GPX/1/1/gpx.xsd">
  <metadata>
    <time>2026-04-21T05:05:51Z</time>
  </metadata>
  <trk>
    <name>Route 2024-02-26 9:17am</name>
    <trkseg>
      <trkpt lon="-77.047759" lat="38.899651"><ele>21.011099</ele><time>2024-02-26T14:14:57Z</time><extensions><speed>0.182247</speed><course>320.186161</course><hAcc>6.104643</hAcc><vAcc>1.198513</vAcc></extensions></trkpt>
      <trkpt lon="-77.047760" lat="38.899652"><ele>21.008189</ele><time>2024-02-26T14:14:58Z</time><extensions><speed>0.182394</speed><course>320.305778</course><hAcc>5.783414</hAcc><vAcc>1.020682</vAcc></extensions></trkpt>
      <trkpt lon="-77.047762" lat="38.899653"><ele>21.005245</ele><time>2024-02-26T14:14:59Z</time><extensions><speed>0.182846</speed><course>320.391680</course><hAcc>5.492092</hAcc><vAcc>0.865862</vAcc></extensions></trkpt>
      <trkpt lon="-77.047763" lat="38.899654"><ele>21.002247</ele><time>2024-02-26T14:15:00Z</time><extensions><speed>0.183177</speed><course>320.514971</course><hAcc>5.230886</hAcc><vAcc>0.736071</vAcc></extensions></trkpt>
      <trkpt lon="-77.047764" lat="38.899656"><ele>20.999173</ele><time>2024-02-26T14:15:01Z</time><extensions><speed>0.183237</speed><course>320.711437</course><hAcc>4.999590</hAcc><vAcc>0.633306</vAcc></extensions></trkpt>
      <trkpt lon="-77.047766" lat="38.899657"><ele>20.996011</ele><time>2024-02-26T14:15:02Z</time><extensions><speed>0.183153</speed><course>321.013640</course><hAcc>4.797506</hAcc><vAcc>0.557789</vAcc></extensions></trkpt>
      <trkpt lon="-77.047767" lat="38.899658"><ele>20.992757</ele><time>2024-02-26T14:15:03Z</time><extensions><speed>0.182881</speed><course>321.469576</course><hAcc>4.623246</hAcc><vAcc>0.506901</vAcc></extensions></trkpt>
      <trkpt lon="-77.047768" lat="38.899660"><ele>20.989430</ele><time>2024-02-26T14:15:04Z</time><extensions><speed>0.182329</speed><course>322.041558</course><hAcc>4.475565</hAcc><vAcc>0.475770</vAcc></extensions></trkpt>
      <trkpt lon="-77.047769" lat="38.899661"><ele>20.986067</ele><time>2024-02-26T14:15:05Z</time><extensions><speed>0.181636</speed><course>322.738160</course><hAcc>4.352627</hAcc><vAcc>0.458710</vAcc></extensions></trkpt>
      <trkpt lon="-77.047771" lat="38.899662"><ele>20.982710</ele><time>2024-02-26T14:15:06Z</time><extensions><speed>0.180749</speed><course>323.513122</course><hAcc>4.252403</hAcc><vAcc>0.450538</vAcc></extensions></trkpt>
      <trkpt lon="-77.047772" lat="38.899663"><ele>20.979406</ele><time>2024-02-26T14:15:07Z</time><extensions><speed>0.179622</speed><course>324.376709</course><hAcc>4.172611</hAcc><vAcc>0.447310</vAcc></extensions></trkpt>
      <trkpt lon="-77.047773" lat="38.899665"><ele>20.976198</ele><time>2024-02-26T14:15:08Z</time><extensions><speed>0.178377</speed><course>325.357090</course><hAcc>4.110783</hAcc><vAcc>0.446460</vAcc></extensions></trkpt>
      <trkpt lon="-77.047774" lat="38.899666"><ele>20.973117</ele><time>2024-02-26T14:15:09Z</time><extensions><speed>0.177119</speed><course>326.458047</course><hAcc>4.064213</hAcc><vAcc>0.446604</vAcc></extensions></trkpt>
      <trkpt lon="-77.047775" lat="38.899667"><ele>20.970178</ele><time>2024-02-26T14:15:10Z</time><extensions><speed>0.175763</speed><course>327.620798</course><hAcc>4.030795</hAcc><vAcc>0.447194</vAcc></extensions></trkpt>
      <trkpt lon="-77.047776" lat="38.899669"><ele>20.967382</ele><time>2024-02-26T14:15:11Z</time><extensions><speed>0.174317</speed><course>328.786253</course><hAcc>4.008417</hAcc><vAcc>0.448122</vAcc></extensions></trkpt>
      <trkpt lon="-77.047777" lat="38.899670"><ele>20.964711</ele><time>2024-02-26T14:15:12Z</time><extensions><speed>0.172643</speed><course>329.934256</course><hAcc>3.995020</hAcc><vAcc>0.449356</vAcc></extensions></trkpt>
      <trkpt lon="-77.047778" lat="38.899671"><ele>20.962142</ele><time>2024-02-26T14:15:13Z</time><extensions><speed>0.170652</speed><course>331.101820</course><hAcc>3.988699</hAcc><vAcc>0.450705</vAcc></extensions></trkpt>
      <trkpt lon="-77.047779" lat="38.899672"><ele>20.959655</ele><time>2024-02-26T14:15:14Z</time><extensions><speed>0.168809</speed><course>332.353780</course><hAcc>3.987800</hAcc><vAcc>0.451788</vAcc></extensions></trkpt>
      <trkpt lon="-77.047780" lat="38.899674"><ele>20.957241</ele><time>2024-02-26T14:15:15Z</time><extensions><speed>0.166723</speed><course>333.704771</course><hAcc>3.991114</hAcc><vAcc>0.452166</vAcc></extensions></trkpt>
      <trkpt lon="-77.047781" lat="38.899675"><ele>20.954904</ele><time>2024-02-26T14:15:16Z</time><extensions><speed>0.164529</speed><course>335.101720</course><hAcc>3.997342</hAcc><vAcc>0.451506</vAcc></extensions></trkpt>
      <trkpt lon="-77.047782" lat="38.899676"><ele>20.952674</ele><time>2024-02-26T14:15:17Z</time><extensions><speed>0.162281</speed><course>336.653845</course><hAcc>4.005511</hAcc><vAcc>0.449702</vAcc></extensions></trkpt>
      <trkpt lon="-77.047783" lat="38.899677"><ele>20.950591</ele><time>2024-02-26T14:15:18Z</time><extensions><speed>0.160156</speed><course>338.258238</course><hAcc>4.014704</hAcc><vAcc>0.446919</vAcc></extensions></trkpt>
      <trkpt lon="-77.047784" lat="38.899679"><ele>20.948706</ele><time>2024-02-26T14:15:19Z</time><extensions><speed>0.158033</speed><course>339.936215</course><hAcc>4.024288</hAcc><vAcc>0.443574</vAcc></extensions></trkpt>
      <trkpt lon="-77.047785" lat="38.899680"><ele>20.947078</ele><time>2024-02-26T14:15:20Z</time><extensions><speed>0.155784</speed><course>341.617217</course><hAcc>4.033614</hAcc><vAcc>0.440193</vAcc></extensions></trkpt>
      <trkpt lon="-77.047785" lat="38.899681"><ele>20.945753</ele><time>2024-02-26T14:15:21Z</time><extensions><speed>0.153603</speed><course>343.351772</course><hAcc>4.042149</hAcc><vAcc>0.437193</vAcc></extensions></trkpt>
      <trkpt lon="-77.047786" lat="38.899683"><ele>20.944747</ele><time>2024-02-26T14:15:22Z</time><extensions><speed>0.152811</speed><course>345.385817</course><hAcc>4.047937</hAcc><vAcc>0.434770</vAcc></extensions></trkpt>
      <trkpt lon="-77.047786" lat="38.899684"><ele>20.944050</ele><time>2024-02-26T14:15:23Z</time><extensions><speed>0.151588</speed><course>347.284872</course><hAcc>4.052866</hAcc><vAcc>0.432957</vAcc></extensions></trkpt>
      <trkpt lon="-77.047787" lat="38.899686"><ele>20.943634</ele><time>2024-02-26T14:15:24Z</time><extensions><speed>0.150156</speed><course>349.114524</course><hAcc>4.056475</hAcc><vAcc>0.431708</vAcc></extensions></trkpt>
      <trkpt lon="-77.047787" lat="38.899687"><ele>20.943462</ele><time>2024-02-26T14:15:25Z</time><extensions><speed>0.148644</speed><course>350.897710</course><hAcc>4.058321</hAcc><vAcc>0.430929</vAcc></extensions></trkpt>
      <trkpt lon="-77.047787" lat="38.899689"><ele>20.943497</ele><time>2024-02-26T14:15:26Z</time><extensions><speed>0.147199</speed><course>352.650572</course><hAcc>4.058242</hAcc><vAcc>0.430489</vAcc></extensions></trkpt>
      <trkpt lon="-77.047788" lat="38.899690"><ele>20.943714</ele><time>2024-02-26T14:15:27Z</time><extensions><speed>0.145609</speed><course>354.434159</course><hAcc>4.056130</hAcc><vAcc>0.430240</vAcc></extensions></trkpt>
      <trkpt lon="-77.047788" lat="38.899692"><ele>20.944100</ele><time>2024-02-26T14:15:28Z</time><extensions><speed>0.144072</speed><course>356.204835</course><hAcc>4.051764</hAcc><vAcc>0.430071</vAcc></extensions></trkpt>
      <trkpt lon="-77.047788" lat="38.899693"><ele>20.944663</ele><time>2024-02-26T14:15:29Z</time><extensions><speed>0.142764</speed><course>357.946980</course><hAcc>4.045197</hAcc><vAcc>0.429941</vAcc></extensions></trkpt>
      <trkpt lon="-77.047788" lat="38.899694"><ele>20.945429</ele><time>2024-02-26T14:15:30Z</time><extensions><speed>0.141779</speed><course>359.561454</course><hAcc>4.036081</hAcc><vAcc>0.429879</vAcc></extensions></trkpt>
      <trkpt lon="-77.047788" lat="38.899696"><ele>20.946435</ele><time>2024-02-26T14:15:31Z</time><extensions><speed>0.140821</speed><course>1.242097</course><hAcc>4.024744</hAcc><vAcc>0.430003</vAcc></extensions></trkpt>
      <trkpt lon="-77.047788" lat="38.899697"><ele>20.947720</ele><time>2024-02-26T14:15:32Z</time><extensions><speed>0.139962</speed><course>2.938682</course><hAcc>4.011372</hAcc><vAcc>0.430574</vAcc></extensions></trkpt>
      <trkpt lon="-77.047788" lat="38.899699"><ele>20.949318</ele><time>2024-02-26T14:15:33Z</time><extensions><speed>0.139264</speed><course>4.603994</course><hAcc>3.995716</hAcc><vAcc>0.431998</vAcc></extensions></trkpt>
      <trkpt lon="-77.047788" lat="38.899700"><ele>20.951249</ele><time>2024-02-26T14:15:34Z</time><extensions><speed>0.138803</speed><course>6.172004</course><hAcc>3.978120</hAcc><vAcc>0.434804</vAcc></extensions></trkpt>
      <trkpt lon="-77.047788" lat="38.899701"><ele>20.953521</ele><time>2024-02-26T14:15:35Z</time><extensions><speed>0.138243</speed><course>7.510023</course><hAcc>3.959226</hAcc><vAcc>0.439619</vAcc></extensions></trkpt>
      <trkpt lon="-77.047788" lat="38.899703"><ele>20.956127</ele><time>2024-02-26T14:15:36Z</time><extensions><speed>0.137652</speed><course>8.840705</course><hAcc>3.939195</hAcc><vAcc>0.447077</vAcc></extensions></trkpt>
      <trkpt lon="-77.047788" lat="38.899704"><ele>20.959042</ele><time>2024-02-26T14:15:37Z</time><extensions><speed>0.136952</speed><course>10.179927</course><hAcc>3.918404</hAcc><vAcc>0.457643</vAcc></extensions></trkpt>
      <trkpt lon="-77.047787" lat="38.899705"><ele>20.962217</ele><time>2024-02-26T14:15:38Z</time><extensions><speed>0.136176</speed><course>11.429634</course><hAcc>3.897350</hAcc><vAcc>0.471358</vAcc></extensions></trkpt>
      <trkpt lon="-77.047787" lat="38.899706"><ele>20.965580</ele><time>2024-02-26T14:15:39Z</time><extensions><speed>0.135492</speed><course>12.645079</course><hAcc>3.876529</hAcc><vAcc>0.487554</vAcc></extensions></trkpt>
      <trkpt lon="-77.047787" lat="38.899707"><ele>20.969022</ele><time>2024-02-26T14:15:40Z</time><extensions><speed>0.134845</speed><course>13.876137</course><hAcc>3.856406</hAcc><vAcc>0.504599</vAcc></extensions></trkpt>
      <trkpt lon="-77.047786" lat="38.899709"><ele>20.972400</ele><time>2024-02-26T14:15:41Z</time><extensions><speed>0.134622</speed><course>14.893371</course><hAcc>3.837724</hAcc><vAcc>0.519774</vAcc></extensions></trkpt>
      <trkpt lon="-77.047786" lat="38.899710"><ele>20.975544</ele><time>2024-02-26T14:15:42Z</time><extensions><speed>0.134588</speed><course>15.737967</course><hAcc>3.821072</hAcc><vAcc>0.529961</vAcc></extensions></trkpt>
      <trkpt lon="-77.047786" lat="38.899711"><ele>20.978287</ele><time>2024-02-26T14:15:43Z</time><extensions><speed>0.134417</speed><course>16.660421</course><hAcc>3.806952</hAcc><vAcc>0.533066</vAcc></extensions></trkpt>
      <trkpt lon="-77.047786" lat="38.899712"><ele>20.980482</ele><time>2024-02-26T14:15:44Z</time><extensions><speed>0.134313</speed><course>17.685900</course><hAcc>3.795792</hAcc><vAcc>0.528673</vAcc></extensions></trkpt>
      <trkpt lon="-77.047785" lat="38.899713"><ele>20.982001</ele><time>2024-02-26T14:15:45Z</time><extensions><speed>0.134315</speed><course>18.807023</course><hAcc>3.787855</hAcc><vAcc>0.517949</vAcc></extensions></trkpt>
      <trkpt lon="-77.047785" lat="38.899714"><ele>20.982740</ele><time>2024-02-26T14:15:46Z</time><extensions><speed>0.134391</speed><course>20.053541</course><hAcc>3.783375</hAcc><vAcc>0.503394</vAcc></extensions></trkpt>
      <trkpt lon="-77.047784" lat="38.899715"><ele>20.982634</ele><time>2024-02-26T14:15:47Z</time><extensions><speed>0.134418</speed><course>21.464277</course><hAcc>3.782491</hAcc><vAcc>0.488097</vAcc></extensions></trkpt>
      <trkpt lon="-77.047784" lat="38.899716"><ele>20.981674</ele><time>2024-02-26T14:15:48Z</time><extensions><speed>0.134712</speed><course>23.085596</course><hAcc>3.785316</hAcc><vAcc>0.474710</vAcc></extensions></trkpt>
      <trkpt lon="-77.047783" lat="38.899717"><ele>20.979914</ele><time>2024-02-26T14:15:49Z</time><extensions><speed>0.135258</speed><course>24.827912</course><hAcc>3.791799</hAcc><vAcc>0.465077</vAcc></extensions></trkpt>
      <trkpt lon="-77.047783" lat="38.899719"><ele>20.977444</ele><time>2024-02-26T14:15:50Z</time><extensions><speed>0.135893</speed><course>26.823574</course><hAcc>3.802030</hAcc><vAcc>0.460463</vAcc></extensions></trkpt>
      <trkpt lon="-77.047782" lat="38.899720"><ele>20.974380</ele><time>2024-02-26T14:15:51Z</time><extensions><speed>0.139187</speed><course>29.590352</course><hAcc>3.814131</hAcc><vAcc>0.461924</vAcc></extensions></trkpt>
      <trkpt lon="-77.047780" lat="38.899721"><ele>20.970841</ele><time>2024-02-26T14:15:52Z</time><extensions><speed>0.141858</speed><course>32.282021</course><hAcc>3.830482</hAcc><vAcc>0.470659</vAcc></extensions></trkpt>
      <trkpt lon="-77.047778" lat="38.899724"><ele>20.962404</ele><time>2024-02-26T14:15:54Z</time><extensions><speed>0.148977</speed><course>42.619586</course><hAcc>3.833991</hAcc><vAcc>0.467873</vAcc></extensions></trkpt>
      <trkpt lon="-77.047777" lat="38.899725"><ele>20.957675</ele><time>2024-02-26T14:15:55Z</time><extensions><speed>0.151775</speed><course>45.389869</course><hAcc>3.818392</hAcc><vAcc>0.454958</vAcc></extensions></trkpt>
      <trkpt lon="-77.047775" lat="38.899726"><ele>20.952927</ele><time>2024-02-26T14:15:56Z</time><extensions><speed>0.154645</speed><course>48.204206</course><hAcc>3.805200</hAcc><vAcc>0.447157</vAcc></extensions></trkpt>
      <trkpt lon="-77.047774" lat="38.899727"><ele>20.948261</ele><time>2024-02-26T14:15:57Z</time><extensions><speed>0.157461</speed><course>51.196575</course><hAcc>3.793746</hAcc><vAcc>0.442638</vAcc></extensions></trkpt>
      <trkpt lon="-77.047772" lat="38.899727"><ele>20.943763</ele><time>2024-02-26T14:15:58Z</time><extensions><speed>0.160277</speed><course>54.259151</course><hAcc>3.783680</hAcc><vAcc>0.440144</vAcc></extensions></trkpt>
      <trkpt lon="-77.047770" lat="38.899728"><ele>20.939499</ele><time>2024-02-26T14:15:59Z</time><extensions><speed>0.163208</speed><course>57.379818</course><hAcc>3.774311</hAcc><vAcc>0.438871</vAcc></extensions></trkpt>
      <trkpt lon="-77.047769" lat="38.899729"><ele>20.935509</ele><time>2024-02-26T14:16:00Z</time><extensions><speed>0.166117</speed><course>60.503653</course><hAcc>3.765374</hAcc><vAcc>0.438288</vAcc></extensions></trkpt>
      <trkpt lon="-77.047767" lat="38.899730"><ele>20.931823</ele><time>2024-02-26T14:16:01Z</time><extensions><speed>0.169062</speed><course>63.630036</course><hAcc>3.756459</hAcc><vAcc>0.438018</vAcc></extensions></trkpt>
      <trkpt lon="-77.047765" lat="38.899730"><ele>20.928456</ele><time>2024-02-26T14:16:02Z</time><extensions><speed>0.172073</speed><course>66.801377</course><hAcc>3.747422</hAcc><vAcc>0.437808</vAcc></extensions></trkpt>
      <trkpt lon="-77.047763" lat="38.899731"><ele>20.925421</ele><time>2024-02-26T14:16:03Z</time><extensions><speed>0.175053</speed><course>69.987321</course><hAcc>3.738108</hAcc><vAcc>0.437597</vAcc></extensions></trkpt>
      <trkpt lon="-77.047761" lat="38.899731"><ele>20.922733</ele><time>2024-02-26T14:16:04Z</time><extensions><speed>0.177904</speed><course>73.245769</course><hAcc>3.728454</hAcc><vAcc>0.437559</vAcc></extensions></trkpt>
      <trkpt lon="-77.047759" lat="38.899731"><ele>20.920430</ele><time>2024-02-26T14:16:05Z</time><extensions><speed>0.180767</speed><course>76.547973</course><hAcc>3.718453</hAcc><vAcc>0.438083</vAcc></extensions></trkpt>
      <trkpt lon="-77.047757" lat="38.899732"><ele>20.918578</ele><time>2024-02-26T14:16:06Z</time><extensions><speed>0.183770</speed><course>79.851121</course><hAcc>3.708138</hAcc><vAcc>0.439641</vAcc></extensions></trkpt>
      <trkpt lon="-77.047755" lat="38.899732"><ele>20.917276</ele><time>2024-02-26T14:16:07Z</time><extensions><speed>0.186947</speed><course>83.101933</course><hAcc>3.697602</hAcc><vAcc>0.442717</vAcc></extensions></trkpt>
      <trkpt lon="-77.047753" lat="38.899732"><ele>20.916644</ele><time>2024-02-26T14:16:08Z</time><extensions><speed>0.190333</speed><course>86.286534</course><hAcc>3.687067</hAcc><vAcc>0.447729</vAcc></extensions></trkpt>
      <trkpt lon="-77.047751" lat="38.899732"><ele>20.916817</ele><time>2024-02-26T14:16:09Z</time><extensions><speed>0.193931</speed><course>89.359744</course><hAcc>3.676708</hAcc><vAcc>0.454889</vAcc></extensions></trkpt>
      <trkpt lon="-77.047748" lat="38.899732"><ele>20.917921</ele><time>2024-02-26T14:16:10Z</time><extensions><speed>0.197715</speed><course>92.238111</course><hAcc>3.666824</hAcc><vAcc>0.464063</vAcc></extensions></trkpt>
      <trkpt lon="-77.047746" lat="38.899731"><ele>20.920040</ele><time>2024-02-26T14:16:11Z</time><extensions><speed>0.201507</speed><course>94.895657</course><hAcc>3.657621</hAcc><vAcc>0.474606</vAcc></extensions></trkpt>
      <trkpt lon="-77.047744" lat="38.899731"><ele>20.923196</ele><time>2024-02-26T14:16:12Z</time><extensions><speed>0.205431</speed><course>97.332639</course><hAcc>3.649530</hAcc><vAcc>0.485166</vAcc></extensions></trkpt>
      <trkpt lon="-77.047741" lat="38.899731"><ele>20.927305</ele><time>2024-02-26T14:16:13Z</time><extensions><speed>0.209248</speed><course>99.436593</course><hAcc>3.643030</hAcc><vAcc>0.493574</vAcc></extensions></trkpt>
      <trkpt lon="-77.047739" lat="38.899730"><ele>20.932182</ele><time>2024-02-26T14:16:14Z</time><extensions><speed>0.212730</speed><course>101.205696</course><hAcc>3.638540</hAcc><vAcc>0.497523</vAcc></extensions></trkpt>
      <trkpt lon="-77.047737" lat="38.899730"><ele>20.937599</ele><time>2024-02-26T14:16:15Z</time><extensions><speed>0.215827</speed><course>102.684912</course><hAcc>3.636365</hAcc><vAcc>0.495949</vAcc></extensions></trkpt>
      <trkpt lon="-77.047734" lat="38.899729"><ele>20.943325</ele><time>2024-02-26T14:16:16Z</time><extensions><speed>0.218377</speed><course>103.949904</course><hAcc>3.636891</hAcc><vAcc>0.489570</vAcc></extensions></trkpt>
      <trkpt lon="-77.047732" lat="38.899729"><ele>20.949131</ele><time>2024-02-26T14:16:17Z</time><extensions><speed>0.220332</speed><course>104.978616</course><hAcc>3.640094</hAcc><vAcc>0.480373</vAcc></extensions></trkpt>
      <trkpt lon="-77.047730" lat="38.899728"><ele>20.954786</ele><time>2024-02-26T14:16:18Z</time><extensions><speed>0.221724</speed><course>105.831060</course><hAcc>3.646424</hAcc><vAcc>0.470752</vAcc></extensions></trkpt>
      <trkpt lon="-77.047727" lat="38.899728"><ele>20.960111</ele><time>2024-02-26T14:16:19Z</time><extensions><speed>0.222774</speed><course>106.297994</course><hAcc>3.653414</hAcc><vAcc>0.462657</vAcc></extensions></trkpt>
      <trkpt lon="-77.047725" lat="38.899727"><ele>20.964967</ele><time>2024-02-26T14:16:20Z</time><extensions><speed>0.223322</speed><course>106.539295</course><hAcc>3.663308</hAcc><vAcc>0.457455</vAcc></extensions></trkpt>
      <trkpt lon="-77.047722" lat="38.899727"><ele>20.969261</ele><time>2024-02-26T14:16:21Z</time><extensions><speed>0.223036</speed><course>106.711496</course><hAcc>3.677741</hAcc><vAcc>0.456200</vAcc></extensions></trkpt>
      <trkpt lon="-77.047720" lat="38.899726"><ele>20.972936</ele><time>2024-02-26T14:16:22Z</time><extensions><speed>0.222191</speed><course>106.752367</course><hAcc>3.695789</hAcc><vAcc>0.459972</vAcc></extensions></trkpt>
      <trkpt lon="-77.047717" lat="38.899726"><ele>20.975971</ele><time>2024-02-26T14:16:23Z</time><extensions><speed>0.220860</speed><course>106.660961</course><hAcc>3.718602</hAcc><vAcc>0.470124</vAcc></extensions></trkpt>
      <trkpt lon="-77.047713" lat="38.899724"><ele>20.978919</ele><time>2024-02-26T14:16:25Z</time><extensions><speed>0.210470</speed><course>106.121844</course><hAcc>3.737236</hAcc><vAcc>0.468023</vAcc></extensions></trkpt>
      <trkpt lon="-77.047710" lat="38.899724"><ele>20.978856</ele><time>2024-02-26T14:16:26Z</time><extensions><speed>0.207283</speed><course>105.657891</course><hAcc>3.731622</hAcc><vAcc>0.454817</vAcc></extensions></trkpt>
      <trkpt lon="-77.047708" lat="38.899723"><ele>20.978220</ele><time>2024-02-26T14:16:27Z</time><extensions><speed>0.203678</speed><course>105.129792</course><hAcc>3.729859</hAcc><vAcc>0.446550</vAcc></extensions></trkpt>
      <trkpt lon="-77.047706" lat="38.899723"><ele>20.977063</ele><time>2024-02-26T14:16:28Z</time><extensions><speed>0.199521</speed><course>104.565336</course><hAcc>3.731458</hAcc><vAcc>0.441477</vAcc></extensions></trkpt>
      <trkpt lon="-77.047704" lat="38.899723"><ele>20.975463</ele><time>2024-02-26T14:16:29Z</time><extensions><speed>0.194904</speed><course>103.984523</course><hAcc>3.735978</hAcc><vAcc>0.438366</vAcc></extensions></trkpt>
      <trkpt lon="-77.047701" lat="38.899722"><ele>20.973527</ele><time>2024-02-26T14:16:30Z</time><extensions><speed>0.189864</speed><course>103.401232</course><hAcc>3.743004</hAcc><vAcc>0.436429</vAcc></extensions></trkpt>
      <trkpt lon="-77.047699" lat="38.899722"><ele>20.971386</ele><time>2024-02-26T14:16:31Z</time><extensions><speed>0.184417</speed><course>102.813342</course><hAcc>3.752147</hAcc><vAcc>0.435204</vAcc></extensions></trkpt>
      <trkpt lon="-77.047697" lat="38.899721"><ele>20.969193</ele><time>2024-02-26T14:16:32Z</time><extensions><speed>0.178581</speed><course>102.201929</course><hAcc>3.763040</hAcc><vAcc>0.434464</vAcc></extensions></trkpt>
      <trkpt lon="-77.047695" lat="38.899721"><ele>20.967103</ele><time>2024-02-26T14:16:33Z</time><extensions><speed>0.172416</speed><course>101.532592</course><hAcc>3.775352</hAcc><vAcc>0.434119</vAcc></extensions></trkpt>
      <trkpt lon="-77.047693" lat="38.899721"><ele>20.965261</ele><time>2024-02-26T14:16:34Z</time><extensions><speed>0.165917</speed><course>100.766072</course><hAcc>3.788804</hAcc><vAcc>0.434193</vAcc></extensions></trkpt>
      <trkpt lon="-77.047691" lat="38.899721"><ele>20.963786</ele><time>2024-02-26T14:16:35Z</time><extensions><speed>0.159190</speed><course>99.868411</course><hAcc>3.803164</hAcc><vAcc>0.434869</vAcc></extensions></trkpt>
      <trkpt lon="-77.047690" lat="38.899720"><ele>20.962777</ele><time>2024-02-26T14:16:36Z</time><extensions><speed>0.152380</speed><course>98.792250</course><hAcc>3.818259</hAcc><vAcc>0.436503</vAcc></extensions></trkpt>
      <trkpt lon="-77.047688" lat="38.899720"><ele>20.962307</ele><time>2024-02-26T14:16:37Z</time><extensions><speed>0.145628</speed><course>97.473097</course><hAcc>3.833972</hAcc><vAcc>0.439597</vAcc></extensions></trkpt>
      <trkpt lon="-77.047686" lat="38.899720"><ele>20.962421</ele><time>2024-02-26T14:16:38Z</time><extensions><speed>0.139114</speed><course>95.844554</course><hAcc>3.850259</hAcc><vAcc>0.444780</vAcc></extensions></trkpt>
      <trkpt lon="-77.047685" lat="38.899720"><ele>20.963128</ele><time>2024-02-26T14:16:39Z</time><extensions><speed>0.133021</speed><course>93.844634</course><hAcc>3.867165</hAcc><vAcc>0.452802</vAcc></extensions></trkpt>
      <trkpt lon="-77.047683" lat="38.899720"><ele>20.964397</ele><time>2024-02-26T14:16:40Z</time><extensions><speed>0.127559</speed><course>91.413408</course><hAcc>3.884821</hAcc><vAcc>0.464488</vAcc></extensions></trkpt>
      <trkpt lon="-77.047682" lat="38.899720"><ele>20.966164</ele><time>2024-02-26T14:16:41Z</time><extensions><speed>0.122988</speed><course>88.506301</course><hAcc>3.903450</hAcc><vAcc>0.480680</vAcc></extensions></trkpt>
      <trkpt lon="-77.047680" lat="38.899720"><ele>20.968317</ele><time>2024-02-26T14:16:42Z</time><extensions><speed>0.119611</speed><course>85.126110</course><hAcc>3.923368</hAcc><vAcc>0.502154</vAcc></extensions></trkpt>
      <trkpt lon="-77.047678" lat="38.899720"><ele>20.973121</ele><time>2024-02-26T14:16:44Z</time><extensions><speed>0.117008</speed><course>69.271467</course><hAcc>3.925603</hAcc><vAcc>0.512036</vAcc></extensions></trkpt>
      <trkpt lon="-77.047676" lat="38.899721"><ele>20.975485</ele><time>2024-02-26T14:16:45Z</time><extensions><speed>0.119539</speed><course>65.207506</course><hAcc>3.907690</hAcc><vAcc>0.498024</vAcc></extensions></trkpt>
      <trkpt lon="-77.047675" lat="38.899721"><ele>20.977509</ele><time>2024-02-26T14:16:46Z</time><extensions><speed>0.123439</speed><course>61.400162</course><hAcc>3.891367</hAcc><vAcc>0.484815</vAcc></extensions></trkpt>
      <trkpt lon="-77.047674" lat="38.899722"><ele>20.979028</ele><time>2024-02-26T14:16:47Z</time><extensions><speed>0.128401</speed><course>57.984166</course><hAcc>3.876256</hAcc><vAcc>0.472431</vAcc></extensions></trkpt>
      <trkpt lon="-77.047673" lat="38.899723"><ele>20.979918</ele><time>2024-02-26T14:16:48Z</time><extensions><speed>0.134114</speed><course>55.025412</course><hAcc>3.861944</hAcc><vAcc>0.461456</vAcc></extensions></trkpt>
      <trkpt lon="-77.047671" lat="38.899723"><ele>20.980109</ele><time>2024-02-26T14:16:49Z</time><extensions><speed>0.140231</speed><course>52.544896</course><hAcc>3.848013</hAcc><vAcc>0.452297</vAcc></extensions></trkpt>
      <trkpt lon="-77.047670" lat="38.899724"><ele>20.979583</ele><time>2024-02-26T14:16:50Z</time><extensions><speed>0.146471</speed><course>50.521167</course><hAcc>3.834040</hAcc><vAcc>0.445087</vAcc></extensions></trkpt>
      <trkpt lon="-77.047669" lat="38.899725"><ele>20.978372</ele><time>2024-02-26T14:16:51Z</time><extensions><speed>0.152586</speed><course>48.898205</course><hAcc>3.819607</hAcc><vAcc>0.439708</vAcc></extensions></trkpt>
      <trkpt lon="-77.047667" lat="38.899726"><ele>20.976547</ele><time>2024-02-26T14:16:52Z</time><extensions><speed>0.158427</speed><course>47.613304</course><hAcc>3.804316</hAcc><vAcc>0.435895</vAcc></extensions></trkpt>
      <trkpt lon="-77.047666" lat="38.899727"><ele>20.974204</ele><time>2024-02-26T14:16:53Z</time><extensions><speed>0.163783</speed><course>46.609683</course><hAcc>3.787814</hAcc><vAcc>0.433305</vAcc></extensions></trkpt>
      <trkpt lon="-77.047665" lat="38.899728"><ele>20.971438</ele><time>2024-02-26T14:16:54Z</time><extensions><speed>0.168548</speed><course>45.844383</course><hAcc>3.769794</hAcc><vAcc>0.431601</vAcc></extensions></trkpt>
      <trkpt lon="-77.047663" lat="38.899729"><ele>20.968339</ele><time>2024-02-26T14:16:55Z</time><extensions><speed>0.172605</speed><course>45.283756</course><hAcc>3.749917</hAcc><vAcc>0.430523</vAcc></extensions></trkpt>
      <trkpt lon="-77.047662" lat="38.899730"><ele>20.964990</ele><time>2024-02-26T14:16:56Z</time><extensions><speed>0.175848</speed><course>44.899871</course><hAcc>3.728055</hAcc><vAcc>0.429880</vAcc></extensions></trkpt>
      <trkpt lon="-77.047660" lat="38.899731"><ele>20.961476</ele><time>2024-02-26T14:16:57Z</time><extensions><speed>0.178188</speed><course>44.671251</course><hAcc>3.704074</hAcc><vAcc>0.429531</vAcc></extensions></trkpt>
      <trkpt lon="-77.047659" lat="38.899732"><ele>20.957892</ele><time>2024-02-26T14:16:58Z</time><extensions><speed>0.179571</speed><course>44.575527</course><hAcc>3.677910</hAcc><vAcc>0.429371</vAcc></extensions></trkpt>
      <trkpt lon="-77.047657" lat="38.899734"><ele>20.954337</ele><time>2024-02-26T14:16:59Z</time><extensions><speed>0.179973</speed><course>44.590381</course><hAcc>3.649571</hAcc><vAcc>0.429320</vAcc></extensions></trkpt>
      <trkpt lon="-77.047656" lat="38.899735"><ele>20.950916</ele><time>2024-02-26T14:17:00Z</time><extensions><speed>0.179347</speed><course>44.693795</course><hAcc>3.620211</hAcc><vAcc>0.429317</vAcc></extensions></trkpt>
      <trkpt lon="-77.047654" lat="38.899736"><ele>20.947729</ele><time>2024-02-26T14:17:01Z</time><extensions><speed>0.177717</speed><course>44.872549</course><hAcc>3.589076</hAcc><vAcc>0.429308</vAcc></extensions></trkpt>
      <trkpt lon="-77.047653" lat="38.899737"><ele>20.944870</ele><time>2024-02-26T14:17:02Z</time><extensions><speed>0.175093</speed><course>45.108465</course><hAcc>3.556400</hAcc><vAcc>0.429263</vAcc></extensions></trkpt>
      <trkpt lon="-77.047652" lat="38.899738"><ele>20.942411</ele><time>2024-02-26T14:17:03Z</time><extensions><speed>0.171478</speed><course>45.384736</course><hAcc>3.522481</hAcc><vAcc>0.429189</vAcc></extensions></trkpt>
      <trkpt lon="-77.047650" lat="38.899739"><ele>20.940407</ele><time>2024-02-26T14:17:04Z</time><extensions><speed>0.166908</speed><course>45.691473</course><hAcc>3.487673</hAcc><vAcc>0.429178</vAcc></extensions></trkpt>
      <trkpt lon="-77.047649" lat="38.899740"><ele>20.938890</ele><time>2024-02-26T14:17:05Z</time><extensions><speed>0.161434</speed><course>46.016029</course><hAcc>3.452371</hAcc><vAcc>0.429470</vAcc></extensions></trkpt>
      <trkpt lon="-77.047648" lat="38.899741"><ele>20.937868</ele><time>2024-02-26T14:17:06Z</time><extensions><speed>0.155059</speed><course>46.341391</course><hAcc>3.417004</hAcc><vAcc>0.430553</vAcc></extensions></trkpt>
      <trkpt lon="-77.047646" lat="38.899742"><ele>20.937314</ele><time>2024-02-26T14:17:07Z</time><extensions><speed>0.147796</speed><course>46.659293</course><hAcc>3.381995</hAcc><vAcc>0.433277</vAcc></extensions></trkpt>
      <trkpt lon="-77.047645" lat="38.899743"><ele>20.937159</ele><time>2024-02-26T14:17:08Z</time><extensions><speed>0.139691</speed><course>46.968576</course><hAcc>3.347719</hAcc><vAcc>0.438956</vAcc></extensions></trkpt>
      <trkpt lon="-77.047644" lat="38.899744"><ele>20.937312</ele><time>2024-02-26T14:17:09Z</time><extensions><speed>0.130730</speed><course>47.268211</course><hAcc>3.314455</hAcc><vAcc>0.449384</vAcc></extensions></trkpt>
      <trkpt lon="-77.047643" lat="38.899745"><ele>20.937666</ele><time>2024-02-26T14:17:10Z</time><extensions><speed>0.120983</speed><course>47.559951</course><hAcc>3.282319</hAcc><vAcc>0.466671</vAcc></extensions></trkpt>
      <trkpt lon="-77.047642" lat="38.899745"><ele>20.938130</ele><time>2024-02-26T14:17:11Z</time><extensions><speed>0.110454</speed><course>47.849814</course><hAcc>3.251201</hAcc><vAcc>0.492842</vAcc></extensions></trkpt>
      <trkpt lon="-77.047641" lat="38.899746"><ele>20.938633</ele><time>2024-02-26T14:17:12Z</time><extensions><speed>0.100260</speed><course>48.141949</course><hAcc>3.220626</hAcc><vAcc>0.529169</vAcc></extensions></trkpt>
      <trkpt lon="-77.047640" lat="38.899747"><ele>20.939129</ele><time>2024-02-26T14:17:13Z</time><extensions><speed>0.091124</speed><course>48.436438</course><hAcc>3.190006</hAcc><vAcc>0.575358</vAcc></extensions></trkpt>
      <trkpt lon="-77.047639" lat="38.899747"><ele>20.939596</ele><time>2024-02-26T14:17:14Z</time><extensions><speed>0.082894</speed><course>48.731134</course><hAcc>3.159073</hAcc><vAcc>0.628984</vAcc></extensions></trkpt>
      <trkpt lon="-77.047639" lat="38.899748"><ele>20.940027</ele><time>2024-02-26T14:17:15Z</time><extensions><speed>0.075454</speed><course>49.024692</course><hAcc>3.127912</hAcc><vAcc>0.686206</vAcc></extensions></trkpt>
      <trkpt lon="-77.047638" lat="38.899748"><ele>20.940423</ele><time>2024-02-26T14:17:16Z</time><extensions><speed>0.068724</speed><course>49.316610</course><hAcc>3.096789</hAcc><vAcc>0.743555</vAcc></extensions></trkpt>
      <trkpt lon="-77.047637" lat="38.899748"><ele>20.940783</ele><time>2024-02-26T14:17:17Z</time><extensions><speed>0.062631</speed><course>49.606392</course><hAcc>3.066044</hAcc><vAcc>0.798698</vAcc></extensions></trkpt>
      <trkpt lon="-77.047637" lat="38.899749"><ele>20.941108</ele><time>2024-02-26T14:17:18Z</time><extensions><speed>0.057109</speed><course>49.893551</course><hAcc>3.036046</hAcc><vAcc>0.850200</vAcc></extensions></trkpt>
      <trkpt lon="-77.047636" lat="38.899749"><ele>20.941400</ele><time>2024-02-26T14:17:19Z</time><extensions><speed>0.052102</speed><course>50.177608</course><hAcc>3.007161</hAcc><vAcc>0.897277</vAcc></extensions></trkpt>
      <trkpt lon="-77.047636" lat="38.899749"><ele>20.941661</ele><time>2024-02-26T14:17:20Z</time><extensions><speed>0.047556</speed><course>50.458097</course><hAcc>2.979738</hAcc><vAcc>0.939592</vAcc></extensions></trkpt>
      <trkpt lon="-77.047636" lat="38.899750"><ele>20.941891</ele><time>2024-02-26T14:17:21Z</time><extensions><speed>0.043427</speed><course>50.734579</course><hAcc>2.954096</hAcc><vAcc>0.977114</vAcc></extensions></trkpt>
      <trkpt lon="-77.047635" lat="38.899750"><ele>20.942093</ele><time>2024-02-26T14:17:22Z</time><extensions><speed>0.039672</speed><course>51.006637</course><hAcc>2.930521</hAcc><vAcc>1.010021</vAcc></extensions></trkpt>
      <trkpt lon="-77.047635" lat="38.899750"><ele>20.942269</ele><time>2024-02-26T14:17:23Z</time><extensions><speed>0.036256</speed><course>51.273876</course><hAcc>2.909263</hAcc><vAcc>1.038629</vAcc></extensions></trkpt>
      <trkpt lon="-77.047635" lat="38.899750"><ele>20.942422</ele><time>2024-02-26T14:17:24Z</time><extensions><speed>0.033146</speed><course>51.535903</course><hAcc>2.890539</hAcc><vAcc>1.063338</vAcc></extensions></trkpt>
      <trkpt lon="-77.047634" lat="38.899750"><ele>20.942553</ele><time>2024-02-26T14:17:25Z</time><extensions><speed>0.030311</speed><course>51.792343</course><hAcc>2.874537</hAcc><vAcc>1.084603</vAcc></extensions></trkpt>
      <trkpt lon="-77.047634" lat="38.899751"><ele>20.942664</ele><time>2024-02-26T14:17:26Z</time><extensions><speed>0.027726</speed><course>52.042830</course><hAcc>2.861422</hAcc><vAcc>1.102907</vAcc></extensions></trkpt>
      <trkpt lon="-77.047634" lat="38.899751"><ele>20.942757</ele><time>2024-02-26T14:17:27Z</time><extensions><speed>0.025366</speed><course>52.287011</course><hAcc>2.851341</hAcc><vAcc>1.118745</vAcc></extensions></trkpt>
      <trkpt lon="-77.047634" lat="38.899751"><ele>20.942835</ele><time>2024-02-26T14:17:28Z</time><extensions><speed>0.023211</speed><course>52.524536</course><hAcc>2.844428</hAcc><vAcc>1.132624</vAcc></extensions></trkpt>
      <trkpt lon="-77.047633" lat="38.899751"><ele>20.942898</ele><time>2024-02-26T14:17:29Z</time><extensions><speed>0.021241</speed><course>52.755054</course><hAcc>2.840811</hAcc><vAcc>1.145051</vAcc></extensions></trkpt>
      <trkpt lon="-77.047633" lat="38.899751"><ele>20.942950</ele><time>2024-02-26T14:17:30Z</time><extensions><speed>0.019439</speed><course>52.978215</course><hAcc>2.840616</hAcc><vAcc>1.156543</vAcc></extensions></trkpt>
      <trkpt lon="-77.047633" lat="38.899751"><ele>20.942990</ele><time>2024-02-26T14:17:31Z</time><extensions><speed>0.017790</speed><course>53.193677</course><hAcc>2.843976</hAcc><vAcc>1.167633</vAcc></extensions></trkpt>
      <trkpt lon="-77.047633" lat="38.899751"><ele>20.943022</ele><time>2024-02-26T14:17:32Z</time><extensions><speed>0.016280</speed><course>53.401086</course><hAcc>2.851031</hAcc><vAcc>1.178886</vAcc></extensions></trkpt>
      <trkpt lon="-77.047633" lat="38.899751"><ele>20.943045</ele><time>2024-02-26T14:17:33Z</time><extensions><speed>0.014897</speed><course>53.600073</course><hAcc>2.861936</hAcc><vAcc>1.190915</vAcc></extensions></trkpt>
      <trkpt lon="-77.047633" lat="38.899751"><ele>20.943062</ele><time>2024-02-26T14:17:34Z</time><extensions><speed>0.013631</speed><course>53.790253</course><hAcc>2.876867</hAcc><vAcc>1.204407</vAcc></extensions></trkpt>
      <trkpt lon="-77.047632" lat="38.899751"><ele>20.943074</ele><time>2024-02-26T14:17:35Z</time><extensions><speed>0.012471</speed><course>53.971221</course><hAcc>2.896024</hAcc><vAcc>1.220144</vAcc></extensions></trkpt>
      <trkpt lon="-77.047632" lat="38.899752"><ele>20.943080</ele><time>2024-02-26T14:17:36Z</time><extensions><speed>0.011411</speed><course>54.142532</course><hAcc>2.919636</hAcc><vAcc>1.239034</vAcc></extensions></trkpt>
      <trkpt lon="-77.047632" lat="38.899752"><ele>20.943083</ele><time>2024-02-26T14:17:37Z</time><extensions><speed>0.010441</speed><course>54.303679</course><hAcc>2.947976</hAcc><vAcc>1.262116</vAcc></extensions></trkpt>
      <trkpt lon="-77.047632" lat="38.899752"><ele>20.943083</ele><time>2024-02-26T14:17:38Z</time><extensions><speed>0.009558</speed><course>54.454071</course><hAcc>2.981362</hAcc><vAcc>1.290573</vAcc></extensions></trkpt>
      <trkpt lon="-77.047632" lat="38.899752"><ele>20.943081</ele><time>2024-02-26T14:17:39Z</time><extensions><speed>0.008754</speed><course>54.593023</course><hAcc>3.020179</hAcc><vAcc>1.325716</vAcc></extensions></trkpt>
      <trkpt lon="-77.047632" lat="38.899752"><ele>20.943077</ele><time>2024-02-26T14:17:40Z</time><extensions><speed>0.008026</speed><course>54.719758</course><hAcc>3.064895</hAcc><vAcc>1.368954</vAcc></extensions></trkpt>
      <trkpt lon="-77.047632" lat="38.899752"><ele>20.943071</ele><time>2024-02-26T14:17:41Z</time><extensions><speed>0.007371</speed><course>54.833417</course><hAcc>3.116083</hAcc><vAcc>1.421764</vAcc></extensions></trkpt>
      <trkpt lon="-77.047632" lat="38.899752"><ele>20.943065</ele><time>2024-02-26T14:17:42Z</time><extensions><speed>0.006786</speed><course>54.933079</course><hAcc>3.174452</hAcc><vAcc>1.485625</vAcc></extensions></trkpt>
      <trkpt lon="-77.047632" lat="38.899752"><ele>20.943058</ele><time>2024-02-26T14:17:43Z</time><extensions><speed>0.006270</speed><course>55.017817</course><hAcc>3.240882</hAcc><vAcc>1.561966</vAcc></extensions></trkpt>
      <trkpt lon="-77.047632" lat="38.899752"><ele>20.943051</ele><time>2024-02-26T14:17:44Z</time><extensions><speed>0.005820</speed><course>55.086812</course><hAcc>3.316480</hAcc><vAcc>1.652097</vAcc></extensions></trkpt>
      <trkpt lon="-77.047632" lat="38.899752"><ele>20.943043</ele><time>2024-02-26T14:17:45Z</time><extensions><speed>0.005439</speed><course>55.139532</course><hAcc>3.402634</hAcc><vAcc>1.757160</vAcc></extensions></trkpt>
      <trkpt lon="-77.047632" lat="38.899752"><ele>20.943036</ele><time>2024-02-26T14:17:46Z</time><extensions><speed>0.005126</speed><course>55.176276</course><hAcc>3.501079</hAcc><vAcc>1.878149</vAcc></extensions></trkpt>
      <trkpt lon="-77.047632" lat="38.899752"><ele>20.943028</ele><time>2024-02-26T14:17:47Z</time><extensions><speed>0.004884</speed><course>55.198539</course><hAcc>3.613970</hAcc><vAcc>2.016009</vAcc></extensions></trkpt>
      <trkpt lon="-77.047632" lat="38.899752"><ele>20.943021</ele><time>2024-02-26T14:17:48Z</time><extensions><speed>0.004718</speed><course>55.209033</course><hAcc>3.743972</hAcc><vAcc>2.171678</vAcc></extensions></trkpt>
      <trkpt lon="-77.047631" lat="38.899752"><ele>20.943014</ele><time>2024-02-26T14:17:49Z</time><extensions><speed>0.004632</speed><course>55.211760</course><hAcc>3.894375</hAcc><vAcc>2.346078</vAcc></extensions></trkpt>
    </trkseg>
  </trk>
</gpx>