<?xml version="1.0" encoding="UTF-8"?>
<gpx version="1.1" creator="Apple Health Export" xmlns="http://www.topografix.com/GPX/1/1" xmlns:xsi="http://www.w3.org/2001/XMLSchema-instance" xsi:schemaLocation="http://www.topografix.com/GPX/1/1 http://www.topografix.com/GPX/1/1/gpx.xsd">
  <metadata>
    <time>2026-04-21T05:05:50Z</time>
  </metadata>
  <trk>
    <name>Route 2021-12-25 3:37pm</name>
    <trkseg>
      <trkpt lon="-76.448080" lat="39.344591"><ele>18.532520</ele><time>2021-12-25T20:32:07Z</time><extensions><speed>0.015846</speed><course>30.212276</course><hAcc>4.510054</hAcc><vAcc>2.713453</vAcc></extensions></trkpt>
      <trkpt lon="-76.448076" lat="39.344597"><ele>18.576426</ele><time>2021-12-25T20:32:08Z</time><extensions><speed>0.036547</speed><course>30.212278</course><hAcc>4.135452</hAcc><vAcc>2.502046</vAcc></extensions></trkpt>
      <trkpt lon="-76.448072" lat="39.344602"><ele>18.616308</ele><time>2021-12-25T20:32:09Z</time><extensions><speed>0.051500</speed><course>30.212280</course><hAcc>3.809416</hAcc><vAcc>2.321953</vAcc></extensions></trkpt>
      <trkpt lon="-76.448070" lat="39.344604"><ele>18.650032</ele><time>2021-12-25T20:32:10Z</time><extensions><speed>0.076739</speed><course>30.212282</course><hAcc>3.601945</hAcc><vAcc>2.180118</vAcc></extensions></trkpt>
      <trkpt lon="-76.448068" lat="39.344606"><ele>18.679985</ele><time>2021-12-25T20:32:11Z</time><extensions><speed>0.082297</speed><course>30.212282</course><hAcc>3.463136</hAcc><vAcc>2.071652</vAcc></extensions></trkpt>
      <trkpt lon="-76.448067" lat="39.344608"><ele>18.706776</ele><time>2021-12-25T20:32:12Z</time><extensions><speed>0.086234</speed><course>30.212284</course><hAcc>3.376049</hAcc><vAcc>1.996124</vAcc></extensions></trkpt>
      <trkpt lon="-76.448067" lat="39.344609"><ele>18.731401</ele><time>2021-12-25T20:32:13Z</time><extensions><speed>0.066003</speed><course>30.212284</course><hAcc>3.314458</hAcc><vAcc>1.948549</vAcc></extensions></trkpt>
      <trkpt lon="-76.448066" lat="39.344610"><ele>18.754654</ele><time>2021-12-25T20:32:14Z</time><extensions><speed>0.080498</speed><course>30.212284</course><hAcc>3.236596</hAcc><vAcc>1.920734</vAcc></extensions></trkpt>
      <trkpt lon="-76.448065" lat="39.344611"><ele>18.776764</ele><time>2021-12-25T20:32:15Z</time><extensions><speed>0.079030</speed><course>30.212286</course><hAcc>3.147773</hAcc><vAcc>1.906239</vAcc></extensions></trkpt>
      <trkpt lon="-76.448064" lat="39.344612"><ele>18.797010</ele><time>2021-12-25T20:32:16Z</time><extensions><speed>0.029236</speed><course>30.212286</course><hAcc>3.105990</hAcc><vAcc>1.912928</vAcc></extensions></trkpt>
      <trkpt lon="-76.448063" lat="39.344613"><ele>18.815998</ele><time>2021-12-25T20:32:17Z</time><extensions><speed>0.029687</speed><course>30.212286</course><hAcc>3.051858</hAcc><vAcc>1.930136</vAcc></extensions></trkpt>
      <trkpt lon="-76.448063" lat="39.344614"><ele>18.833561</ele><time>2021-12-25T20:32:18Z</time><extensions><speed>0.021642</speed><course>30.212286</course><hAcc>3.010031</hAcc><vAcc>1.960583</vAcc></extensions></trkpt>
      <trkpt lon="-76.448062" lat="39.344615"><ele>18.850817</ele><time>2021-12-25T20:32:19Z</time><extensions><speed>0.022521</speed><course>30.212286</course><hAcc>2.936901</hAcc><vAcc>1.983781</vAcc></extensions></trkpt>
      <trkpt lon="-76.448061" lat="39.344616"><ele>18.867729</ele><time>2021-12-25T20:32:20Z</time><extensions><speed>0.017299</speed><course>30.212288</course><hAcc>2.831158</hAcc><vAcc>1.988848</vAcc></extensions></trkpt>
      <trkpt lon="-76.448060" lat="39.344617"><ele>18.883249</ele><time>2021-12-25T20:32:21Z</time><extensions><speed>0.016293</speed><course>30.212288</course><hAcc>2.744464</hAcc><vAcc>2.000254</vAcc></extensions></trkpt>
      <trkpt lon="-76.448060" lat="39.344618"><ele>18.897312</ele><time>2021-12-25T20:32:22Z</time><extensions><speed>0.015826</speed><course>30.212288</course><hAcc>2.697340</hAcc><vAcc>2.033716</vAcc></extensions></trkpt>
      <trkpt lon="-76.448059" lat="39.344619"><ele>18.910881</ele><time>2021-12-25T20:32:23Z</time><extensions><speed>0.018382</speed><course>30.212290</course><hAcc>2.516824</hAcc><vAcc>1.970556</vAcc></extensions></trkpt>
      <trkpt lon="-76.448058" lat="39.344621"><ele>18.923220</ele><time>2021-12-25T20:32:24Z</time><extensions><speed>0.020151</speed><course>30.212290</course><hAcc>2.373791</hAcc><vAcc>1.921179</vAcc></extensions></trkpt>
      <trkpt lon="-76.448055" lat="39.344630"><ele>19.031750</ele><time>2021-12-25T20:32:25Z</time><extensions><speed>0.035818</speed><course>21.514896</course><hAcc>2.213656</hAcc><vAcc>1.647677</vAcc></extensions></trkpt>
      <trkpt lon="-76.448054" lat="39.344636"><ele>19.080479</ele><time>2021-12-25T20:32:26Z</time><extensions><speed>0.047419</speed><course>18.541676</course><hAcc>2.099339</hAcc><vAcc>1.542448</vAcc></extensions></trkpt>
      <trkpt lon="-76.448053" lat="39.344640"><ele>19.113209</ele><time>2021-12-25T20:32:27Z</time><extensions><speed>0.055530</speed><course>16.755194</course><hAcc>2.021430</hAcc><vAcc>1.469892</vAcc></extensions></trkpt>
      <trkpt lon="-76.448052" lat="39.344642"><ele>19.142687</ele><time>2021-12-25T20:32:28Z</time><extensions><speed>0.070025</speed><course>15.756877</course><hAcc>1.966701</hAcc><vAcc>1.405725</vAcc></extensions></trkpt>
      <trkpt lon="-76.448052" lat="39.344644"><ele>19.170708</ele><time>2021-12-25T20:32:29Z</time><extensions><speed>0.066658</speed><course>14.940923</course><hAcc>1.932837</hAcc><vAcc>1.341898</vAcc></extensions></trkpt>
      <trkpt lon="-76.448052" lat="39.344645"><ele>19.197510</ele><time>2021-12-25T20:32:30Z</time><extensions><speed>0.101911</speed><course>14.169636</course><hAcc>1.900752</hAcc><vAcc>1.275697</vAcc></extensions></trkpt>
      <trkpt lon="-76.448051" lat="39.344646"><ele>19.223570</ele><time>2021-12-25T20:32:31Z</time><extensions><speed>0.073386</speed><course>13.479403</course><hAcc>1.887426</hAcc><vAcc>1.206594</vAcc></extensions></trkpt>
      <trkpt lon="-76.448051" lat="39.344647"><ele>19.248901</ele><time>2021-12-25T20:32:32Z</time><extensions><speed>0.074432</speed><course>12.860968</course><hAcc>1.875856</hAcc><vAcc>1.135291</vAcc></extensions></trkpt>
      <trkpt lon="-76.448051" lat="39.344648"><ele>19.273474</ele><time>2021-12-25T20:32:33Z</time><extensions><speed>0.083701</speed><course>11.805930</course><hAcc>1.867419</hAcc><vAcc>1.063348</vAcc></extensions></trkpt>
      <trkpt lon="-76.448051" lat="39.344649"><ele>19.297104</ele><time>2021-12-25T20:32:34Z</time><extensions><speed>0.137603</speed><course>10.243475</course><hAcc>1.854458</hAcc><vAcc>0.992957</vAcc></extensions></trkpt>
      <trkpt lon="-76.448050" lat="39.344653"><ele>19.319523</ele><time>2021-12-25T20:32:35Z</time><extensions><speed>0.704474</speed><course>9.473688</course><hAcc>1.764340</hAcc><vAcc>0.926744</vAcc></extensions></trkpt>
      <trkpt lon="-76.448048" lat="39.344660"><ele>19.340443</ele><time>2021-12-25T20:32:36Z</time><extensions><speed>0.828450</speed><course>9.101582</course><hAcc>1.724553</hAcc><vAcc>0.867294</vAcc></extensions></trkpt>
      <trkpt lon="-76.448047" lat="39.344667"><ele>19.359653</ele><time>2021-12-25T20:32:37Z</time><extensions><speed>0.747515</speed><course>9.176564</course><hAcc>1.741913</hAcc><vAcc>0.816416</vAcc></extensions></trkpt>
      <trkpt lon="-76.448045" lat="39.344673"><ele>19.377050</ele><time>2021-12-25T20:32:38Z</time><extensions><speed>0.610866</speed><course>10.025411</course><hAcc>1.754130</hAcc><vAcc>0.774852</vAcc></extensions></trkpt>
      <trkpt lon="-76.448044" lat="39.344678"><ele>19.392595</ele><time>2021-12-25T20:32:39Z</time><extensions><speed>0.495887</speed><course>11.717234</course><hAcc>1.725971</hAcc><vAcc>0.742439</vAcc></extensions></trkpt>
      <trkpt lon="-76.448043" lat="39.344682"><ele>19.406303</ele><time>2021-12-25T20:32:40Z</time><extensions><speed>0.366738</speed><course>14.066464</course><hAcc>1.666636</hAcc><vAcc>0.718351</vAcc></extensions></trkpt>
      <trkpt lon="-76.448042" lat="39.344684"><ele>19.418221</ele><time>2021-12-25T20:32:41Z</time><extensions><speed>0.234373</speed><course>16.370234</course><hAcc>1.599809</hAcc><vAcc>0.701356</vAcc></extensions></trkpt>
      <trkpt lon="-76.448042" lat="39.344686"><ele>19.428421</ele><time>2021-12-25T20:32:42Z</time><extensions><speed>0.108885</speed><course>18.228115</course><hAcc>1.554033</hAcc><vAcc>0.690039</vAcc></extensions></trkpt>
      <trkpt lon="-76.448041" lat="39.344686"><ele>19.437014</ele><time>2021-12-25T20:32:43Z</time><extensions><speed>0.046753</speed><course>19.901804</course><hAcc>1.508715</hAcc><vAcc>0.683019</vAcc></extensions></trkpt>
      <trkpt lon="-76.448041" lat="39.344687"><ele>19.444132</ele><time>2021-12-25T20:32:44Z</time><extensions><speed>0.024015</speed><course>21.009699</course><hAcc>1.461297</hAcc><vAcc>0.679082</vAcc></extensions></trkpt>
      <trkpt lon="-76.448041" lat="39.344687"><ele>19.449919</ele><time>2021-12-25T20:32:45Z</time><extensions><speed>0.013442</speed><course>21.440947</course><hAcc>1.422837</hAcc><vAcc>0.677258</vAcc></extensions></trkpt>
      <trkpt lon="-76.448041" lat="39.344687"><ele>19.454523</ele><time>2021-12-25T20:32:46Z</time><extensions><speed>0.011414</speed><course>21.545727</course><hAcc>1.382072</hAcc><vAcc>0.676847</vAcc></extensions></trkpt>
      <trkpt lon="-76.448041" lat="39.344688"><ele>19.460321</ele><time>2021-12-25T20:32:47Z</time><extensions><speed>0.012547</speed><course>16.978682</course><hAcc>1.351430</hAcc><vAcc>0.677379</vAcc></extensions></trkpt>
      <trkpt lon="-76.448041" lat="39.344688"><ele>19.466267</ele><time>2021-12-25T20:32:48Z</time><extensions><speed>0.014847</speed><course>14.411489</course><hAcc>1.325162</hAcc><vAcc>0.678540</vAcc></extensions></trkpt>
      <trkpt lon="-76.448041" lat="39.344689"><ele>19.472359</ele><time>2021-12-25T20:32:49Z</time><extensions><speed>0.019884</speed><course>12.714378</course><hAcc>1.300831</hAcc><vAcc>0.680118</vAcc></extensions></trkpt>
      <trkpt lon="-76.448040" lat="39.344689"><ele>19.478685</ele><time>2021-12-25T20:32:50Z</time><extensions><speed>0.022397</speed><course>11.598369</course><hAcc>1.286049</hAcc><vAcc>0.681965</vAcc></extensions></trkpt>
      <trkpt lon="-76.448040" lat="39.344690"><ele>19.485344</ele><time>2021-12-25T20:32:51Z</time><extensions><speed>0.022842</speed><course>10.790558</course><hAcc>1.279147</hAcc><vAcc>0.683949</vAcc></extensions></trkpt>
      <trkpt lon="-76.448040" lat="39.344690"><ele>19.492401</ele><time>2021-12-25T20:32:52Z</time><extensions><speed>0.027001</speed><course>10.190907</course><hAcc>1.274150</hAcc><vAcc>0.685968</vAcc></extensions></trkpt>
      <trkpt lon="-76.448040" lat="39.344690"><ele>19.499903</ele><time>2021-12-25T20:32:53Z</time><extensions><speed>0.024759</speed><course>9.722123</course><hAcc>1.278775</hAcc><vAcc>0.687967</vAcc></extensions></trkpt>
      <trkpt lon="-76.448040" lat="39.344691"><ele>19.507853</ele><time>2021-12-25T20:32:54Z</time><extensions><speed>0.030511</speed><course>9.349906</course><hAcc>1.282290</hAcc><vAcc>0.689863</vAcc></extensions></trkpt>
      <trkpt lon="-76.448040" lat="39.344691"><ele>19.517845</ele><time>2021-12-25T20:32:55Z</time><extensions><speed>0.030020</speed><course>10.202189</course><hAcc>1.294928</hAcc><vAcc>0.691559</vAcc></extensions></trkpt>
      <trkpt lon="-76.448040" lat="39.344692"><ele>19.528946</ele><time>2021-12-25T20:32:56Z</time><extensions><speed>0.039477</speed><course>11.412210</course><hAcc>1.304472</hAcc><vAcc>0.692958</vAcc></extensions></trkpt>
      <trkpt lon="-76.448039" lat="39.344692"><ele>19.541410</ele><time>2021-12-25T20:32:57Z</time><extensions><speed>0.128698</speed><course>13.590519</course><hAcc>1.286165</hAcc><vAcc>0.694034</vAcc></extensions></trkpt>
      <trkpt lon="-76.448039" lat="39.344694"><ele>19.554478</ele><time>2021-12-25T20:32:58Z</time><extensions><speed>0.209849</speed><course>16.038870</course><hAcc>1.291819</hAcc><vAcc>0.694790</vAcc></extensions></trkpt>
      <trkpt lon="-76.448038" lat="39.344695"><ele>19.567928</ele><time>2021-12-25T20:32:59Z</time><extensions><speed>0.148181</speed><course>18.807745</course><hAcc>1.368873</hAcc><vAcc>0.695264</vAcc></extensions></trkpt>
      <trkpt lon="-76.448037" lat="39.344696"><ele>19.581600</ele><time>2021-12-25T20:33:00Z</time><extensions><speed>0.081046</speed><course>23.147024</course><hAcc>1.423992</hAcc><vAcc>0.695520</vAcc></extensions></trkpt>
      <trkpt lon="-76.448037" lat="39.344697"><ele>19.595366</ele><time>2021-12-25T20:33:00Z</time><extensions><speed>0.052768</speed><course>29.542580</course><hAcc>1.441534</hAcc><vAcc>0.695619</vAcc></extensions></trkpt>
      <trkpt lon="-76.448037" lat="39.344697"><ele>19.609110</ele><time>2021-12-25T20:33:01Z</time><extensions><speed>0.036398</speed><course>37.321415</course><hAcc>1.454368</hAcc><vAcc>0.695621</vAcc></extensions></trkpt>
      <trkpt lon="-76.448036" lat="39.344698"><ele>19.622721</ele><time>2021-12-25T20:33:02Z</time><extensions><speed>0.025514</speed><course>46.582790</course><hAcc>1.470386</hAcc><vAcc>0.695606</vAcc></extensions></trkpt>
      <trkpt lon="-76.448036" lat="39.344698"><ele>19.636061</ele><time>2021-12-25T20:33:03Z</time><extensions><speed>0.024278</speed><course>58.504787</course><hAcc>1.478144</hAcc><vAcc>0.695621</vAcc></extensions></trkpt>
      <trkpt lon="-76.448035" lat="39.344698"><ele>19.648952</ele><time>2021-12-25T20:33:04Z</time><extensions><speed>0.106758</speed><course>65.209206</course><hAcc>1.413424</hAcc><vAcc>0.695726</vAcc></extensions></trkpt>
      <trkpt lon="-76.448034" lat="39.344698"><ele>19.661188</ele><time>2021-12-25T20:33:05Z</time><extensions><speed>0.130809</speed><course>67.564140</course><hAcc>1.399113</hAcc><vAcc>0.695997</vAcc></extensions></trkpt>
      <trkpt lon="-76.448033" lat="39.344699"><ele>19.672569</ele><time>2021-12-25T20:33:06Z</time><extensions><speed>0.094955</speed><course>68.406624</course><hAcc>1.430823</hAcc><vAcc>0.696509</vAcc></extensions></trkpt>
      <trkpt lon="-76.448032" lat="39.344699"><ele>19.682951</ele><time>2021-12-25T20:33:07Z</time><extensions><speed>0.047035</speed><course>68.853584</course><hAcc>1.446927</hAcc><vAcc>0.697325</vAcc></extensions></trkpt>
      <trkpt lon="-76.448032" lat="39.344699"><ele>19.692242</ele><time>2021-12-25T20:33:08Z</time><extensions><speed>0.029670</speed><course>69.101974</course><hAcc>1.418494</hAcc><vAcc>0.698471</vAcc></extensions></trkpt>
      <trkpt lon="-76.448031" lat="39.344699"><ele>19.699375</ele><time>2021-12-25T20:33:09Z</time><extensions><speed>0.017602</speed><course>95.075157</course><hAcc>1.389842</hAcc><vAcc>0.699928</vAcc></extensions></trkpt>
      <trkpt lon="-76.448031" lat="39.344698"><ele>19.705097</ele><time>2021-12-25T20:33:10Z</time><extensions><speed>0.016834</speed><course>122.968430</course><hAcc>1.358571</hAcc><vAcc>0.701655</vAcc></extensions></trkpt>
      <trkpt lon="-76.448030" lat="39.344697"><ele>19.709459</ele><time>2021-12-25T20:33:11Z</time><extensions><speed>0.021510</speed><course>140.513229</course><hAcc>1.328035</hAcc><vAcc>0.703593</vAcc></extensions></trkpt>
      <trkpt lon="-76.448030" lat="39.344697"><ele>19.712542</ele><time>2021-12-25T20:33:12Z</time><extensions><speed>0.024439</speed><course>150.222366</course><hAcc>1.307127</hAcc><vAcc>0.705686</vAcc></extensions></trkpt>
      <trkpt lon="-76.448030" lat="39.344696"><ele>19.714430</ele><time>2021-12-25T20:33:13Z</time><extensions><speed>0.023968</speed><course>156.140442</course><hAcc>1.295277</hAcc><vAcc>0.707846</vAcc></extensions></trkpt>
      <trkpt lon="-76.448030" lat="39.344696"><ele>19.715235</ele><time>2021-12-25T20:33:14Z</time><extensions><speed>0.026480</speed><course>159.984695</course><hAcc>1.285045</hAcc><vAcc>0.710008</vAcc></extensions></trkpt>
      <trkpt lon="-76.448030" lat="39.344695"><ele>19.715061</ele><time>2021-12-25T20:33:15Z</time><extensions><speed>0.032490</speed><course>162.530853</course><hAcc>1.277200</hAcc><vAcc>0.712076</vAcc></extensions></trkpt>
      <trkpt lon="-76.448029" lat="39.344695"><ele>19.714037</ele><time>2021-12-25T20:33:16Z</time><extensions><speed>0.036208</speed><course>164.321106</course><hAcc>1.275981</hAcc><vAcc>0.713984</vAcc></extensions></trkpt>
      <trkpt lon="-76.448029" lat="39.344694"><ele>19.712297</ele><time>2021-12-25T20:33:17Z</time><extensions><speed>0.040432</speed><course>165.679199</course><hAcc>1.278935</hAcc><vAcc>0.715711</vAcc></extensions></trkpt>
      <trkpt lon="-76.448029" lat="39.344694"><ele>19.709986</ele><time>2021-12-25T20:33:18Z</time><extensions><speed>0.061052</speed><course>166.717163</course><hAcc>1.276465</hAcc><vAcc>0.717223</vAcc></extensions></trkpt>
      <trkpt lon="-76.448029" lat="39.344692"><ele>19.707270</ele><time>2021-12-25T20:33:19Z</time><extensions><speed>0.260169</speed><course>167.023544</course><hAcc>1.222214</hAcc><vAcc>0.718527</vAcc></extensions></trkpt>
      <trkpt lon="-76.448028" lat="39.344690"><ele>19.704319</ele><time>2021-12-25T20:33:20Z</time><extensions><speed>0.186804</speed><course>167.048141</course><hAcc>1.260733</hAcc><vAcc>0.719636</vAcc></extensions></trkpt>
      <trkpt lon="-76.448028" lat="39.344689"><ele>19.701283</ele><time>2021-12-25T20:33:21Z</time><extensions><speed>0.089795</speed><course>167.057541</course><hAcc>1.294738</hAcc><vAcc>0.720599</vAcc></extensions></trkpt>
      <trkpt lon="-76.448027" lat="39.344688"><ele>19.698275</ele><time>2021-12-25T20:33:22Z</time><extensions><speed>0.048760</speed><course>167.061066</course><hAcc>1.293897</hAcc><vAcc>0.721476</vAcc></extensions></trkpt>
      <trkpt lon="-76.448027" lat="39.344687"><ele>19.695383</ele><time>2021-12-25T20:33:23Z</time><extensions><speed>0.038645</speed><course>167.061844</course><hAcc>1.277315</hAcc><vAcc>0.722323</vAcc></extensions></trkpt>
      <trkpt lon="-76.448027" lat="39.344687"><ele>19.692665</ele><time>2021-12-25T20:33:24Z</time><extensions><speed>0.040718</speed><course>167.061951</course><hAcc>1.254937</hAcc><vAcc>0.723188</vAcc></extensions></trkpt>
      <trkpt lon="-76.448027" lat="39.344687"><ele>19.690166</ele><time>2021-12-25T20:33:25Z</time><extensions><speed>0.035869</speed><course>167.061966</course><hAcc>1.238836</hAcc><vAcc>0.724113</vAcc></extensions></trkpt>
      <trkpt lon="-76.448027" lat="39.344686"><ele>19.687908</ele><time>2021-12-25T20:33:26Z</time><extensions><speed>0.032706</speed><course>167.061966</course><hAcc>1.223038</hAcc><vAcc>0.725131</vAcc></extensions></trkpt>
      <trkpt lon="-76.448027" lat="39.344686"><ele>19.685902</ele><time>2021-12-25T20:33:27Z</time><extensions><speed>0.025462</speed><course>167.061966</course><hAcc>1.212103</hAcc><vAcc>0.726242</vAcc></extensions></trkpt>
      <trkpt lon="-76.448027" lat="39.344686"><ele>19.684147</ele><time>2021-12-25T20:33:28Z</time><extensions><speed>0.018428</speed><course>167.061966</course><hAcc>1.202548</hAcc><vAcc>0.727430</vAcc></extensions></trkpt>
      <trkpt lon="-76.448027" lat="39.344685"><ele>19.682636</ele><time>2021-12-25T20:33:29Z</time><extensions><speed>0.016929</speed><course>167.061966</course><hAcc>1.188785</hAcc><vAcc>0.728653</vAcc></extensions></trkpt>
      <trkpt lon="-76.448027" lat="39.344685"><ele>19.681356</ele><time>2021-12-25T20:33:30Z</time><extensions><speed>0.014577</speed><course>167.061966</course><hAcc>1.177897</hAcc><vAcc>0.729881</vAcc></extensions></trkpt>
      <trkpt lon="-76.448027" lat="39.344685"><ele>19.680288</ele><time>2021-12-25T20:33:31Z</time><extensions><speed>0.012895</speed><course>167.061966</course><hAcc>1.168082</hAcc><vAcc>0.731072</vAcc></extensions></trkpt>
      <trkpt lon="-76.448026" lat="39.344685"><ele>19.679417</ele><time>2021-12-25T20:33:32Z</time><extensions><speed>0.011759</speed><course>167.061966</course><hAcc>1.159265</hAcc><vAcc>0.732200</vAcc></extensions></trkpt>
      <trkpt lon="-76.448026" lat="39.344685"><ele>19.678715</ele><time>2021-12-25T20:33:33Z</time><extensions><speed>0.010784</speed><course>167.061966</course><hAcc>1.151844</hAcc><vAcc>0.733232</vAcc></extensions></trkpt>
      <trkpt lon="-76.448026" lat="39.344685"><ele>19.678167</ele><time>2021-12-25T20:33:34Z</time><extensions><speed>0.010325</speed><course>167.061966</course><hAcc>1.145091</hAcc><vAcc>0.734144</vAcc></extensions></trkpt>
      <trkpt lon="-76.448026" lat="39.344684"><ele>19.677752</ele><time>2021-12-25T20:33:35Z</time><extensions><speed>0.009550</speed><course>167.061966</course><hAcc>1.140399</hAcc><vAcc>0.734927</vAcc></extensions></trkpt>
      <trkpt lon="-76.448026" lat="39.344684"><ele>19.677446</ele><time>2021-12-25T20:33:36Z</time><extensions><speed>0.008338</speed><course>167.061966</course><hAcc>1.137661</hAcc><vAcc>0.735566</vAcc></extensions></trkpt>
      <trkpt lon="-76.448026" lat="39.344684"><ele>19.677237</ele><time>2021-12-25T20:33:37Z</time><extensions><speed>0.007508</speed><course>167.061966</course><hAcc>1.134886</hAcc><vAcc>0.736061</vAcc></extensions></trkpt>
      <trkpt lon="-76.448026" lat="39.344684"><ele>19.677105</ele><time>2021-12-25T20:33:38Z</time><extensions><speed>0.006922</speed><course>167.061966</course><hAcc>1.132317</hAcc><vAcc>0.736416</vAcc></extensions></trkpt>
      <trkpt lon="-76.448026" lat="39.344684"><ele>19.677036</ele><time>2021-12-25T20:33:39Z</time><extensions><speed>0.007334</speed><course>167.061966</course><hAcc>1.128475</hAcc><vAcc>0.736632</vAcc></extensions></trkpt>
      <trkpt lon="-76.448026" lat="39.344684"><ele>19.677017</ele><time>2021-12-25T20:33:40Z</time><extensions><speed>0.006429</speed><course>167.061966</course><hAcc>1.129567</hAcc><vAcc>0.736732</vAcc></extensions></trkpt>
      <trkpt lon="-76.448026" lat="39.344684"><ele>19.677036</ele><time>2021-12-25T20:33:41Z</time><extensions><speed>0.006179</speed><course>167.061966</course><hAcc>1.128949</hAcc><vAcc>0.736734</vAcc></extensions></trkpt>
      <trkpt lon="-76.448026" lat="39.344684"><ele>19.677084</ele><time>2021-12-25T20:33:42Z</time><extensions><speed>0.004838</speed><course>167.061966</course><hAcc>1.132143</hAcc><vAcc>0.736648</vAcc></extensions></trkpt>
      <trkpt lon="-76.448026" lat="39.344683"><ele>19.673414</ele><time>2021-12-25T20:33:43Z</time><extensions><speed>0.007933</speed><course>181.313461</course><hAcc>1.130993</hAcc><vAcc>0.736477</vAcc></extensions></trkpt>
      <trkpt lon="-76.448026" lat="39.344683"><ele>19.668896</ele><time>2021-12-25T20:33:44Z</time><extensions><speed>0.012329</speed><course>188.139923</course><hAcc>1.131521</hAcc><vAcc>0.736190</vAcc></extensions></trkpt>
      <trkpt lon="-76.448027" lat="39.344683"><ele>19.662855</ele><time>2021-12-25T20:33:45Z</time><extensions><speed>0.014385</speed><course>192.631012</course><hAcc>1.138980</hAcc><vAcc>0.735707</vAcc></extensions></trkpt>
      <trkpt lon="-76.448027" lat="39.344682"><ele>19.655830</ele><time>2021-12-25T20:33:46Z</time><extensions><speed>0.018105</speed><course>195.355423</course><hAcc>1.146464</hAcc><vAcc>0.735059</vAcc></extensions></trkpt>
      <trkpt lon="-76.448027" lat="39.344682"><ele>19.646448</ele><time>2021-12-25T20:33:47Z</time><extensions><speed>0.020709</speed><course>200.247955</course><hAcc>1.159597</hAcc><vAcc>0.734110</vAcc></extensions></trkpt>
      <trkpt lon="-76.448027" lat="39.344682"><ele>19.635796</ele><time>2021-12-25T20:33:48Z</time><extensions><speed>0.022718</speed><course>204.587021</course><hAcc>1.177530</hAcc><vAcc>0.732846</vAcc></extensions></trkpt>
      <trkpt lon="-76.448028" lat="39.344682"><ele>19.623919</ele><time>2021-12-25T20:33:49Z</time><extensions><speed>0.025200</speed><course>207.602295</course><hAcc>1.199143</hAcc><vAcc>0.731225</vAcc></extensions></trkpt>
      <trkpt lon="-76.448028" lat="39.344682"><ele>19.609772</ele><time>2021-12-25T20:33:50Z</time><extensions><speed>0.027407</speed><course>210.691544</course><hAcc>1.225885</hAcc><vAcc>0.729166</vAcc></extensions></trkpt>
      <trkpt lon="-76.448028" lat="39.344681"><ele>19.594645</ele><time>2021-12-25T20:33:51Z</time><extensions><speed>0.031799</speed><course>213.034683</course><hAcc>1.255994</hAcc><vAcc>0.726626</vAcc></extensions></trkpt>
      <trkpt lon="-76.448028" lat="39.344681"><ele>19.577826</ele><time>2021-12-25T20:33:52Z</time><extensions><speed>0.051804</speed><course>217.629547</course><hAcc>1.282168</hAcc><vAcc>0.723534</vAcc></extensions></trkpt>
      <trkpt lon="-76.448030" lat="39.344680"><ele>19.559687</ele><time>2021-12-25T20:33:53Z</time><extensions><speed>0.211190</speed><course>223.755966</course><hAcc>1.284161</hAcc><vAcc>0.719870</vAcc></extensions></trkpt>
      <trkpt lon="-76.448032" lat="39.344679"><ele>19.540047</ele><time>2021-12-25T20:33:54Z</time><extensions><speed>0.240951</speed><course>231.465866</course><hAcc>1.396159</hAcc><vAcc>0.715561</vAcc></extensions></trkpt>
      <trkpt lon="-76.448034" lat="39.344678"><ele>19.519924</ele><time>2021-12-25T20:33:55Z</time><extensions><speed>0.220931</speed><course>241.346024</course><hAcc>1.533041</hAcc><vAcc>0.710625</vAcc></extensions></trkpt>
      <trkpt lon="-76.448036" lat="39.344677"><ele>19.499529</ele><time>2021-12-25T20:33:56Z</time><extensions><speed>0.141022</speed><course>255.003235</course><hAcc>1.647920</hAcc><vAcc>0.705112</vAcc></extensions></trkpt>
      <trkpt lon="-76.448038" lat="39.344677"><ele>19.479200</ele><time>2021-12-25T20:33:57Z</time><extensions><speed>0.176110</speed><course>267.059570</course><hAcc>1.666696</hAcc><vAcc>0.699089</vAcc></extensions></trkpt>
      <trkpt lon="-76.448040" lat="39.344677"><ele>19.459578</ele><time>2021-12-25T20:33:58Z</time><extensions><speed>0.189774</speed><course>273.977386</course><hAcc>1.702243</hAcc><vAcc>0.692664</vAcc></extensions></trkpt>
      <trkpt lon="-76.448042" lat="39.344677"><ele>19.440645</ele><time>2021-12-25T20:33:59Z</time><extensions><speed>0.133636</speed><course>280.954285</course><hAcc>1.772123</hAcc><vAcc>0.685960</vAcc></extensions></trkpt>
      <trkpt lon="-76.448044" lat="39.344678"><ele>19.422640</ele><time>2021-12-25T20:34:00Z</time><extensions><speed>0.220553</speed><course>288.665161</course><hAcc>1.753298</hAcc><vAcc>0.679108</vAcc></extensions></trkpt>
      <trkpt lon="-76.448046" lat="39.344679"><ele>19.405771</ele><time>2021-12-25T20:34:01Z</time><extensions><speed>0.248671</speed><course>296.248505</course><hAcc>1.761696</hAcc><vAcc>0.672260</vAcc></extensions></trkpt>
      <trkpt lon="-76.448048" lat="39.344680"><ele>19.391569</ele><time>2021-12-25T20:34:02Z</time><extensions><speed>0.263403</speed><course>307.484314</course><hAcc>1.781632</hAcc><vAcc>0.665580</vAcc></extensions></trkpt>
      <trkpt lon="-76.448050" lat="39.344682"><ele>19.380030</ele><time>2021-12-25T20:34:03Z</time><extensions><speed>0.258385</speed><course>321.105072</course><hAcc>1.785875</hAcc><vAcc>0.659224</vAcc></extensions></trkpt>
      <trkpt lon="-76.448052" lat="39.344684"><ele>19.371164</ele><time>2021-12-25T20:34:04Z</time><extensions><speed>0.266083</speed><course>335.482513</course><hAcc>1.757088</hAcc><vAcc>0.653354</vAcc></extensions></trkpt>
      <trkpt lon="-76.448053" lat="39.344687"><ele>19.364962</ele><time>2021-12-25T20:34:05Z</time><extensions><speed>0.265120</speed><course>346.923798</course><hAcc>1.724413</hAcc><vAcc>0.648128</vAcc></extensions></trkpt>
      <trkpt lon="-76.448053" lat="39.344689"><ele>19.361437</ele><time>2021-12-25T20:34:06Z</time><extensions><speed>0.194010</speed><course>356.207886</course><hAcc>1.731442</hAcc><vAcc>0.643646</vAcc></extensions></trkpt>
      <trkpt lon="-76.448053" lat="39.344691"><ele>19.360512</ele><time>2021-12-25T20:34:07Z</time><extensions><speed>0.162179</speed><course>3.957804</course><hAcc>1.718854</hAcc><vAcc>0.639923</vAcc></extensions></trkpt>
      <trkpt lon="-76.448053" lat="39.344693"><ele>19.362015</ele><time>2021-12-25T20:34:08Z</time><extensions><speed>0.250019</speed><course>8.205836</course><hAcc>1.648900</hAcc><vAcc>0.636892</vAcc></extensions></trkpt>
      <trkpt lon="-76.448052" lat="39.344695"><ele>19.365694</ele><time>2021-12-25T20:34:09Z</time><extensions><speed>0.189538</speed><course>11.225538</course><hAcc>1.637245</hAcc><vAcc>0.634436</vAcc></extensions></trkpt>
      <trkpt lon="-76.448052" lat="39.344696"><ele>19.371237</ele><time>2021-12-25T20:34:10Z</time><extensions><speed>0.141762</speed><course>14.707352</course><hAcc>1.643882</hAcc><vAcc>0.632434</vAcc></extensions></trkpt>
      <trkpt lon="-76.448051" lat="39.344698"><ele>19.378269</ele><time>2021-12-25T20:34:11Z</time><extensions><speed>0.139353</speed><course>18.315205</course><hAcc>1.633616</hAcc><vAcc>0.630822</vAcc></extensions></trkpt>
      <trkpt lon="-76.448050" lat="39.344700"><ele>19.386354</ele><time>2021-12-25T20:34:12Z</time><extensions><speed>0.255037</speed><course>20.931919</course><hAcc>1.567793</hAcc><vAcc>0.629594</vAcc></extensions></trkpt>
      <trkpt lon="-76.448049" lat="39.344702"><ele>19.395006</ele><time>2021-12-25T20:34:14Z</time><extensions><speed>0.270781</speed><course>22.274179</course><hAcc>1.518328</hAcc><vAcc>0.628788</vAcc></extensions></trkpt>
      <trkpt lon="-76.448048" lat="39.344704"><ele>19.403763</ele><time>2021-12-25T20:34:15Z</time><extensions><speed>0.184609</speed><course>22.734049</course><hAcc>1.508962</hAcc><vAcc>0.628468</vAcc></extensions></trkpt>
      <trkpt lon="-76.448047" lat="39.344705"><ele>19.412275</ele><time>2021-12-25T20:34:16Z</time><extensions><speed>0.106933</speed><course>22.969269</course><hAcc>1.497000</hAcc><vAcc>0.628679</vAcc></extensions></trkpt>
      <trkpt lon="-76.448047" lat="39.344706"><ele>19.420290</ele><time>2021-12-25T20:34:17Z</time><extensions><speed>0.062693</speed><course>23.083862</course><hAcc>1.472092</hAcc><vAcc>0.629424</vAcc></extensions></trkpt>
      <trkpt lon="-76.448047" lat="39.344706"><ele>19.427643</ele><time>2021-12-25T20:34:18Z</time><extensions><speed>0.043887</speed><course>23.125902</course><hAcc>1.438315</hAcc><vAcc>0.630674</vAcc></extensions></trkpt>
      <trkpt lon="-76.448046" lat="39.344707"><ele>19.434238</ele><time>2021-12-25T20:34:19Z</time><extensions><speed>0.033864</speed><course>23.136799</course><hAcc>1.404260</hAcc><vAcc>0.632401</vAcc></extensions></trkpt>
      <trkpt lon="-76.448045" lat="39.344706"><ele>19.437887</ele><time>2021-12-25T20:34:20Z</time><extensions><speed>0.023995</speed><course>43.173534</course><hAcc>1.373759</hAcc><vAcc>0.634515</vAcc></extensions></trkpt>
      <trkpt lon="-76.448045" lat="39.344706"><ele>19.439775</ele><time>2021-12-25T20:34:21Z</time><extensions><speed>0.020510</speed><course>71.104782</course><hAcc>1.347755</hAcc><vAcc>0.636925</vAcc></extensions></trkpt>
      <trkpt lon="-76.448044" lat="39.344705"><ele>19.439337</ele><time>2021-12-25T20:34:22Z</time><extensions><speed>0.019828</speed><course>97.523369</course><hAcc>1.329899</hAcc><vAcc>0.639533</vAcc></extensions></trkpt>
      <trkpt lon="-76.448043" lat="39.344705"><ele>19.436930</ele><time>2021-12-25T20:34:23Z</time><extensions><speed>0.022632</speed><course>114.269150</course><hAcc>1.316420</hAcc><vAcc>0.642169</vAcc></extensions></trkpt>
      <trkpt lon="-76.448043" lat="39.344705"><ele>19.433950</ele><time>2021-12-25T20:34:24Z</time><extensions><speed>0.026112</speed><course>126.482254</course><hAcc>1.308084</hAcc><vAcc>0.644644</vAcc></extensions></trkpt>
      <trkpt lon="-76.448043" lat="39.344704"><ele>19.429750</ele><time>2021-12-25T20:34:25Z</time><extensions><speed>0.032460</speed><course>133.874741</course><hAcc>1.303813</hAcc><vAcc>0.646788</vAcc></extensions></trkpt>
      <trkpt lon="-76.448042" lat="39.344704"><ele>19.424425</ele><time>2021-12-25T20:34:26Z</time><extensions><speed>0.036264</speed><course>138.625702</course><hAcc>1.307288</hAcc><vAcc>0.648458</vAcc></extensions></trkpt>
      <trkpt lon="-76.448042" lat="39.344703"><ele>19.418129</ele><time>2021-12-25T20:34:27Z</time><extensions><speed>0.040432</speed><course>141.917664</course><hAcc>1.315821</hAcc><vAcc>0.649591</vAcc></extensions></trkpt>
      <trkpt lon="-76.448042" lat="39.344703"><ele>19.411089</ele><time>2021-12-25T20:34:28Z</time><extensions><speed>0.043947</speed><course>144.461044</course><hAcc>1.328949</hAcc><vAcc>0.650157</vAcc></extensions></trkpt>
      <trkpt lon="-76.448041" lat="39.344702"><ele>19.403587</ele><time>2021-12-25T20:34:29Z</time><extensions><speed>0.073995</speed><course>147.138229</course><hAcc>1.335712</hAcc><vAcc>0.650170</vAcc></extensions></trkpt>
      <trkpt lon="-76.448040" lat="39.344701"><ele>19.395988</ele><time>2021-12-25T20:34:30Z</time><extensions><speed>0.302985</speed><course>149.658020</course><hAcc>1.311359</hAcc><vAcc>0.649694</vAcc></extensions></trkpt>
      <trkpt lon="-76.448039" lat="39.344699"><ele>19.388668</ele><time>2021-12-25T20:34:31Z</time><extensions><speed>0.240438</speed><course>153.010254</course><hAcc>1.390545</hAcc><vAcc>0.648889</vAcc></extensions></trkpt>
      <trkpt lon="-76.448038" lat="39.344697"><ele>19.381968</ele><time>2021-12-25T20:34:32Z</time><extensions><speed>0.202149</speed><course>157.780777</course><hAcc>1.437670</hAcc><vAcc>0.647909</vAcc></extensions></trkpt>
      <trkpt lon="-76.448037" lat="39.344695"><ele>19.376108</ele><time>2021-12-25T20:34:33Z</time><extensions><speed>0.203319</speed><course>162.515625</course><hAcc>1.437663</hAcc><vAcc>0.646904</vAcc></extensions></trkpt>
      <trkpt lon="-76.448036" lat="39.344693"><ele>19.371170</ele><time>2021-12-25T20:34:34Z</time><extensions><speed>0.160823</speed><course>165.628525</course><hAcc>1.435358</hAcc><vAcc>0.646028</vAcc></extensions></trkpt>
      <trkpt lon="-76.448036" lat="39.344692"><ele>19.367117</ele><time>2021-12-25T20:34:35Z</time><extensions><speed>0.096256</speed><course>166.900085</course><hAcc>1.432928</hAcc><vAcc>0.645408</vAcc></extensions></trkpt>
      <trkpt lon="-76.448035" lat="39.344691"><ele>19.363861</ele><time>2021-12-25T20:34:36Z</time><extensions><speed>0.065810</speed><course>167.427658</course><hAcc>1.410925</hAcc><vAcc>0.645160</vAcc></extensions></trkpt>
      <trkpt lon="-76.448035" lat="39.344691"><ele>19.361313</ele><time>2021-12-25T20:34:37Z</time><extensions><speed>0.032277</speed><course>167.599457</course><hAcc>1.397503</hAcc><vAcc>0.645337</vAcc></extensions></trkpt>
      <trkpt lon="-76.448035" lat="39.344690"><ele>19.359381</ele><time>2021-12-25T20:34:38Z</time><extensions><speed>0.032913</speed><course>167.645889</course><hAcc>1.361946</hAcc><vAcc>0.645944</vAcc></extensions></trkpt>
      <trkpt lon="-76.448035" lat="39.344690"><ele>19.357971</ele><time>2021-12-25T20:34:39Z</time><extensions><speed>0.021317</speed><course>167.652908</course><hAcc>1.342151</hAcc><vAcc>0.646997</vAcc></extensions></trkpt>
      <trkpt lon="-76.448035" lat="39.344690"><ele>19.356997</ele><time>2021-12-25T20:34:40Z</time><extensions><speed>0.021264</speed><course>167.654144</course><hAcc>1.314329</hAcc><vAcc>0.648484</vAcc></extensions></trkpt>
      <trkpt lon="-76.448035" lat="39.344689"><ele>19.356380</ele><time>2021-12-25T20:34:41Z</time><extensions><speed>0.017152</speed><course>167.654312</course><hAcc>1.294308</hAcc><vAcc>0.650376</vAcc></extensions></trkpt>
      <trkpt lon="-76.448035" lat="39.344689"><ele>19.356049</ele><time>2021-12-25T20:34:42Z</time><extensions><speed>0.013834</speed><course>167.654327</course><hAcc>1.276672</hAcc><vAcc>0.652616</vAcc></extensions></trkpt>
      <trkpt lon="-76.448035" lat="39.344689"><ele>19.355940</ele><time>2021-12-25T20:34:43Z</time><extensions><speed>0.012356</speed><course>167.654327</course><hAcc>1.258555</hAcc><vAcc>0.655126</vAcc></extensions></trkpt>
      <trkpt lon="-76.448035" lat="39.344689"><ele>19.356001</ele><time>2021-12-25T20:34:44Z</time><extensions><speed>0.010471</speed><course>167.654327</course><hAcc>1.243473</hAcc><vAcc>0.657824</vAcc></extensions></trkpt>
      <trkpt lon="-76.448035" lat="39.344689"><ele>19.356186</ele><time>2021-12-25T20:34:45Z</time><extensions><speed>0.009100</speed><course>167.654327</course><hAcc>1.229617</hAcc><vAcc>0.660629</vAcc></extensions></trkpt>
      <trkpt lon="-76.448035" lat="39.344689"><ele>19.356457</ele><time>2021-12-25T20:34:46Z</time><extensions><speed>0.007564</speed><course>167.654327</course><hAcc>1.218218</hAcc><vAcc>0.663461</vAcc></extensions></trkpt>
      <trkpt lon="-76.448035" lat="39.344689"><ele>19.356781</ele><time>2021-12-25T20:34:47Z</time><extensions><speed>0.006470</speed><course>167.654327</course><hAcc>1.207541</hAcc><vAcc>0.666246</vAcc></extensions></trkpt>
      <trkpt lon="-76.448035" lat="39.344689"><ele>19.357136</ele><time>2021-12-25T20:34:48Z</time><extensions><speed>0.006572</speed><course>167.654327</course><hAcc>1.195466</hAcc><vAcc>0.668928</vAcc></extensions></trkpt>
      <trkpt lon="-76.448035" lat="39.344689"><ele>19.357500</ele><time>2021-12-25T20:34:49Z</time><extensions><speed>0.006004</speed><course>167.654327</course><hAcc>1.187207</hAcc><vAcc>0.671479</vAcc></extensions></trkpt>
      <trkpt lon="-76.448035" lat="39.344688"><ele>19.357859</ele><time>2021-12-25T20:34:50Z</time><extensions><speed>0.005414</speed><course>167.654327</course><hAcc>1.180293</hAcc><vAcc>0.673886</vAcc></extensions></trkpt>
      <trkpt lon="-76.448035" lat="39.344688"><ele>19.358204</ele><time>2021-12-25T20:34:51Z</time><extensions><speed>0.005097</speed><course>167.654327</course><hAcc>1.173255</hAcc><vAcc>0.676135</vAcc></extensions></trkpt>
      <trkpt lon="-76.448035" lat="39.344688"><ele>19.358524</ele><time>2021-12-25T20:34:52Z</time><extensions><speed>0.005112</speed><course>167.654327</course><hAcc>1.166136</hAcc><vAcc>0.678233</vAcc></extensions></trkpt>
      <trkpt lon="-76.448035" lat="39.344688"><ele>19.358816</ele><time>2021-12-25T20:34:53Z</time><extensions><speed>0.003955</speed><course>167.654327</course><hAcc>1.164569</hAcc><vAcc>0.680189</vAcc></extensions></trkpt>
      <trkpt lon="-76.448035" lat="39.344688"><ele>19.359079</ele><time>2021-12-25T20:34:54Z</time><extensions><speed>0.003570</speed><course>167.654327</course><hAcc>1.159418</hAcc><vAcc>0.681996</vAcc></extensions></trkpt>
      <trkpt lon="-76.448035" lat="39.344688"><ele>19.359310</ele><time>2021-12-25T20:34:55Z</time><extensions><speed>0.003273</speed><course>167.654327</course><hAcc>1.154582</hAcc><vAcc>0.683675</vAcc></extensions></trkpt>
      <trkpt lon="-76.448035" lat="39.344688"><ele>19.359510</ele><time>2021-12-25T20:34:56Z</time><extensions><speed>0.003003</speed><course>167.654327</course><hAcc>1.150624</hAcc><vAcc>0.685223</vAcc></extensions></trkpt>
      <trkpt lon="-76.448035" lat="39.344688"><ele>19.359680</ele><time>2021-12-25T20:34:57Z</time><extensions><speed>0.002755</speed><course>167.654327</course><hAcc>1.147522</hAcc><vAcc>0.686656</vAcc></extensions></trkpt>
      <trkpt lon="-76.448035" lat="39.344688"><ele>19.359821</ele><time>2021-12-25T20:34:58Z</time><extensions><speed>0.002526</speed><course>167.654327</course><hAcc>1.145273</hAcc><vAcc>0.687971</vAcc></extensions></trkpt>
      <trkpt lon="-76.448035" lat="39.344688"><ele>19.359940</ele><time>2021-12-25T20:34:59Z</time><extensions><speed>0.002314</speed><course>167.654327</course><hAcc>1.143842</hAcc><vAcc>0.689175</vAcc></extensions></trkpt>
      <trkpt lon="-76.448035" lat="39.344688"><ele>19.360033</ele><time>2021-12-25T20:35:00Z</time><extensions><speed>0.002129</speed><course>167.654327</course><hAcc>1.143005</hAcc><vAcc>0.690287</vAcc></extensions></trkpt>
      <trkpt lon="-76.448035" lat="39.344688"><ele>19.360106</ele><time>2021-12-25T20:35:01Z</time><extensions><speed>0.002100</speed><course>167.654327</course><hAcc>1.141745</hAcc><vAcc>0.691339</vAcc></extensions></trkpt>
      <trkpt lon="-76.448035" lat="39.344688"><ele>19.360161</ele><time>2021-12-25T20:35:01Z</time><extensions><speed>0.002058</speed><course>167.654327</course><hAcc>1.141775</hAcc><vAcc>0.692355</vAcc></extensions></trkpt>
      <trkpt lon="-76.448035" lat="39.344688"><ele>19.360203</ele><time>2021-12-25T20:35:02Z</time><extensions><speed>0.001857</speed><course>167.654327</course><hAcc>1.143844</hAcc><vAcc>0.693364</vAcc></extensions></trkpt>
      <trkpt lon="-76.448035" lat="39.344688"><ele>19.360229</ele><time>2021-12-25T20:35:03Z</time><extensions><speed>0.001796</speed><course>167.654327</course><hAcc>1.144289</hAcc><vAcc>0.694407</vAcc></extensions></trkpt>
      <trkpt lon="-76.448035" lat="39.344688"><ele>19.360249</ele><time>2021-12-25T20:35:04Z</time><extensions><speed>0.001609</speed><course>167.654327</course><hAcc>1.146030</hAcc><vAcc>0.695522</vAcc></extensions></trkpt>
      <trkpt lon="-76.448035" lat="39.344688"><ele>19.360258</ele><time>2021-12-25T20:35:05Z</time><extensions><speed>0.001541</speed><course>167.654327</course><hAcc>1.145696</hAcc><vAcc>0.696732</vAcc></extensions></trkpt>
      <trkpt lon="-76.448035" lat="39.344688"><ele>19.360260</ele><time>2021-12-25T20:35:06Z</time><extensions><speed>0.001370</speed><course>167.654327</course><hAcc>1.146444</hAcc><vAcc>0.698023</vAcc></extensions></trkpt>
      <trkpt lon="-76.448035" lat="39.344688"><ele>19.360258</ele><time>2021-12-25T20:35:07Z</time><extensions><speed>0.001220</speed><course>167.654327</course><hAcc>1.146095</hAcc><vAcc>0.699400</vAcc></extensions></trkpt>
      <trkpt lon="-76.448035" lat="39.344688"><ele>19.360252</ele><time>2021-12-25T20:35:08Z</time><extensions><speed>0.001044</speed><course>167.654327</course><hAcc>1.145507</hAcc><vAcc>0.700854</vAcc></extensions></trkpt>
      <trkpt lon="-76.448035" lat="39.344688"><ele>19.360245</ele><time>2021-12-25T20:35:09Z</time><extensions><speed>0.000927</speed><course>167.654327</course><hAcc>1.143300</hAcc><vAcc>0.702355</vAcc></extensions></trkpt>
      <trkpt lon="-76.448035" lat="39.344688"><ele>19.360235</ele><time>2021-12-25T20:35:10Z</time><extensions><speed>0.000844</speed><course>167.654327</course><hAcc>1.140411</hAcc><vAcc>0.703866</vAcc></extensions></trkpt>
      <trkpt lon="-76.448034" lat="39.344688"><ele>19.360224</ele><time>2021-12-25T20:35:11Z</time><extensions><speed>0.000738</speed><course>167.654327</course><hAcc>1.138218</hAcc><vAcc>0.705351</vAcc></extensions></trkpt>
      <trkpt lon="-76.448034" lat="39.344688"><ele>19.360212</ele><time>2021-12-25T20:35:12Z</time><extensions><speed>0.000692</speed><course>167.654327</course><hAcc>1.134832</hAcc><vAcc>0.706773</vAcc></extensions></trkpt>
      <trkpt lon="-76.448034" lat="39.344688"><ele>19.360201</ele><time>2021-12-25T20:35:13Z</time><extensions><speed>0.000619</speed><course>167.654327</course><hAcc>1.132668</hAcc><vAcc>0.708098</vAcc></extensions></trkpt>
      <trkpt lon="-76.448034" lat="39.344688"><ele>19.360191</ele><time>2021-12-25T20:35:14Z</time><extensions><speed>0.000567</speed><course>167.654327</course><hAcc>1.130322</hAcc><vAcc>0.709286</vAcc></extensions></trkpt>
      <trkpt lon="-76.448034" lat="39.344688"><ele>19.360180</ele><time>2021-12-25T20:35:15Z</time><extensions><speed>0.000520</speed><course>167.654327</course><hAcc>1.128312</hAcc><vAcc>0.710325</vAcc></extensions></trkpt>
      <trkpt lon="-76.448034" lat="39.344688"><ele>19.360170</ele><time>2021-12-25T20:35:16Z</time><extensions><speed>0.000477</speed><course>167.654327</course><hAcc>1.126667</hAcc><vAcc>0.711230</vAcc></extensions></trkpt>
      <trkpt lon="-76.448034" lat="39.344688"><ele>19.360163</ele><time>2021-12-25T20:35:17Z</time><extensions><speed>0.000438</speed><course>167.654327</course><hAcc>1.125365</hAcc><vAcc>0.712021</vAcc></extensions></trkpt>
      <trkpt lon="-76.448034" lat="39.344688"><ele>19.360155</ele><time>2021-12-25T20:35:18Z</time><extensions><speed>0.000402</speed><course>167.654327</course><hAcc>1.124360</hAcc><vAcc>0.712740</vAcc></extensions></trkpt>
      <trkpt lon="-76.448034" lat="39.344688"><ele>19.360149</ele><time>2021-12-25T20:35:19Z</time><extensions><speed>0.000369</speed><course>167.654327</course><hAcc>1.123584</hAcc><vAcc>0.713449</vAcc></extensions></trkpt>
      <trkpt lon="-76.448034" lat="39.344688"><ele>19.360144</ele><time>2021-12-25T20:35:20Z</time><extensions><speed>0.000340</speed><course>167.654327</course><hAcc>1.122883</hAcc><vAcc>0.714155</vAcc></extensions></trkpt>
      <trkpt lon="-76.448034" lat="39.344688"><ele>19.360138</ele><time>2021-12-25T20:35:21Z</time><extensions><speed>0.000339</speed><course>167.654327</course><hAcc>1.121121</hAcc><vAcc>0.714909</vAcc></extensions></trkpt>
      <trkpt lon="-76.448034" lat="39.344688"><ele>19.360134</ele><time>2021-12-25T20:35:22Z</time><extensions><speed>0.000322</speed><course>167.654327</course><hAcc>1.121060</hAcc><vAcc>0.715709</vAcc></extensions></trkpt>
      <trkpt lon="-76.448034" lat="39.344688"><ele>19.360130</ele><time>2021-12-25T20:35:23Z</time><extensions><speed>0.000264</speed><course>167.654327</course><hAcc>1.123236</hAcc><vAcc>0.716564</vAcc></extensions></trkpt>
      <trkpt lon="-76.448034" lat="39.344688"><ele>19.360128</ele><time>2021-12-25T20:35:24Z</time><extensions><speed>0.000240</speed><course>167.654327</course><hAcc>1.122356</hAcc><vAcc>0.717437</vAcc></extensions></trkpt>
      <trkpt lon="-76.448034" lat="39.344688"><ele>19.360126</ele><time>2021-12-25T20:35:25Z</time><extensions><speed>0.000220</speed><course>167.654327</course><hAcc>1.121317</hAcc><vAcc>0.718315</vAcc></extensions></trkpt>
      <trkpt lon="-76.448034" lat="39.344688"><ele>19.360125</ele><time>2021-12-25T20:35:26Z</time><extensions><speed>0.000202</speed><course>167.654327</course><hAcc>1.120556</hAcc><vAcc>0.719165</vAcc></extensions></trkpt>
      <trkpt lon="-76.448034" lat="39.344688"><ele>19.360125</ele><time>2021-12-25T20:35:27Z</time><extensions><speed>0.000185</speed><course>167.654327</course><hAcc>1.120019</hAcc><vAcc>0.719966</vAcc></extensions></trkpt>
      <trkpt lon="-76.448034" lat="39.344688"><ele>19.360123</ele><time>2021-12-25T20:35:28Z</time><extensions><speed>0.000176</speed><course>167.654327</course><hAcc>1.119259</hAcc><vAcc>0.720689</vAcc></extensions></trkpt>
      <trkpt lon="-76.448034" lat="39.344688"><ele>19.360123</ele><time>2021-12-25T20:35:29Z</time><extensions><speed>0.000165</speed><course>167.654327</course><hAcc>1.119478</hAcc><vAcc>0.721317</vAcc></extensions></trkpt>
      <trkpt lon="-76.448034" lat="39.344688"><ele>19.360123</ele><time>2021-12-25T20:35:30Z</time><extensions><speed>0.000143</speed><course>167.654327</course><hAcc>1.121014</hAcc><vAcc>0.721859</vAcc></extensions></trkpt>
      <trkpt lon="-76.448034" lat="39.344688"><ele>19.360123</ele><time>2021-12-25T20:35:31Z</time><extensions><speed>0.000137</speed><course>167.654343</course><hAcc>1.120653</hAcc><vAcc>0.722297</vAcc></extensions></trkpt>
      <trkpt lon="-76.448034" lat="39.344688"><ele>19.360123</ele><time>2021-12-25T20:35:32Z</time><extensions><speed>0.000126</speed><course>167.654343</course><hAcc>1.121425</hAcc><vAcc>0.722646</vAcc></extensions></trkpt>
      <trkpt lon="-76.448034" lat="39.344688"><ele>19.360123</ele><time>2021-12-25T20:35:33Z</time><extensions><speed>0.000110</speed><course>167.654343</course><hAcc>1.123181</hAcc><vAcc>0.722914</vAcc></extensions></trkpt>
      <trkpt lon="-76.448034" lat="39.344688"><ele>19.360123</ele><time>2021-12-25T20:35:34Z</time><extensions><speed>0.000109</speed><course>167.654343</course><hAcc>1.122492</hAcc><vAcc>0.723109</vAcc></extensions></trkpt>
      <trkpt lon="-76.448034" lat="39.344688"><ele>19.360123</ele><time>2021-12-25T20:35:35Z</time><extensions><speed>0.000103</speed><course>167.654343</course><hAcc>1.123461</hAcc><vAcc>0.723234</vAcc></extensions></trkpt>
      <trkpt lon="-76.448034" lat="39.344688"><ele>19.360123</ele><time>2021-12-25T20:35:36Z</time><extensions><speed>0.000095</speed><course>167.654343</course><hAcc>1.124840</hAcc><vAcc>0.723308</vAcc></extensions></trkpt>
      <trkpt lon="-76.448034" lat="39.344688"><ele>19.360125</ele><time>2021-12-25T20:35:37Z</time><extensions><speed>0.000086</speed><course>167.654327</course><hAcc>1.126279</hAcc><vAcc>0.723338</vAcc></extensions></trkpt>
      <trkpt lon="-76.448034" lat="39.344688"><ele>19.360125</ele><time>2021-12-25T20:35:38Z</time><extensions><speed>0.000077</speed><course>167.654327</course><hAcc>1.127462</hAcc><vAcc>0.723346</vAcc></extensions></trkpt>
      <trkpt lon="-76.448034" lat="39.344688"><ele>19.360125</ele><time>2021-12-25T20:35:39Z</time><extensions><speed>0.000069</speed><course>167.654327</course><hAcc>1.127866</hAcc><vAcc>0.723336</vAcc></extensions></trkpt>
      <trkpt lon="-76.448035" lat="39.344691"><ele>19.366026</ele><time>2021-12-25T20:35:40Z</time><extensions><speed>0.033468</speed><course>355.092163</course><hAcc>1.127894</hAcc><vAcc>0.723240</vAcc></extensions></trkpt>
      <trkpt lon="-76.448035" lat="39.344694"><ele>19.373323</ele><time>2021-12-25T20:35:41Z</time><extensions><speed>0.065219</speed><course>355.084778</course><hAcc>1.128630</hAcc><vAcc>0.723116</vAcc></extensions></trkpt>
      <trkpt lon="-76.448036" lat="39.344698"><ele>19.382097</ele><time>2021-12-25T20:35:42Z</time><extensions><speed>0.093833</speed><course>355.082336</course><hAcc>1.130803</hAcc><vAcc>0.722925</vAcc></extensions></trkpt>
      <trkpt lon="-76.448036" lat="39.344701"><ele>19.392351</ele><time>2021-12-25T20:35:43Z</time><extensions><speed>0.125019</speed><course>355.081116</course><hAcc>1.133905</hAcc><vAcc>0.722649</vAcc></extensions></trkpt>
      <trkpt lon="-76.448036" lat="39.344703"><ele>19.404070</ele><time>2021-12-25T20:35:44Z</time><extensions><speed>0.150863</speed><course>355.080383</course><hAcc>1.139514</hAcc><vAcc>0.722280</vAcc></extensions></trkpt>
      <trkpt lon="-76.448037" lat="39.344706"><ele>19.417221</ele><time>2021-12-25T20:35:45Z</time><extensions><speed>0.187008</speed><course>355.079895</course><hAcc>1.145841</hAcc><vAcc>0.721797</vAcc></extensions></trkpt>
      <trkpt lon="-76.448037" lat="39.344710"><ele>19.431713</ele><time>2021-12-25T20:35:46Z</time><extensions><speed>0.216676</speed><course>355.079559</course><hAcc>1.155237</hAcc><vAcc>0.721198</vAcc></extensions></trkpt>
      <trkpt lon="-76.448037" lat="39.344713"><ele>19.447401</ele><time>2021-12-25T20:35:47Z</time><extensions><speed>0.250104</speed><course>355.079285</course><hAcc>1.166473</hAcc><vAcc>0.720476</vAcc></extensions></trkpt>
      <trkpt lon="-76.448038" lat="39.344716"><ele>19.464058</ele><time>2021-12-25T20:35:48Z</time><extensions><speed>0.288577</speed><course>355.079071</course><hAcc>1.179588</hAcc><vAcc>0.719634</vAcc></extensions></trkpt>
      <trkpt lon="-76.448038" lat="39.344720"><ele>19.481352</ele><time>2021-12-25T20:35:49Z</time><extensions><speed>0.405702</speed><course>355.078918</course><hAcc>1.187139</hAcc><vAcc>0.718668</vAcc></extensions></trkpt>
      <trkpt lon="-76.448039" lat="39.344730"><ele>19.498831</ele><time>2021-12-25T20:35:50Z</time><extensions><speed>1.565103</speed><course>355.078857</course><hAcc>1.154593</hAcc><vAcc>0.717600</vAcc></extensions></trkpt>
      <trkpt lon="-76.448041" lat="39.344742"><ele>19.515966</ele><time>2021-12-25T20:35:51Z</time><extensions><speed>0.958027</speed><course>355.078857</course><hAcc>1.216700</hAcc><vAcc>0.716431</vAcc></extensions></trkpt>
      <trkpt lon="-76.448041" lat="39.344750"><ele>19.532310</ele><time>2021-12-25T20:35:52Z</time><extensions><speed>0.528406</speed><course>355.078857</course><hAcc>1.244263</hAcc><vAcc>0.715165</vAcc></extensions></trkpt>
      <trkpt lon="-76.448042" lat="39.344755"><ele>19.547550</ele><time>2021-12-25T20:35:53Z</time><extensions><speed>0.305983</speed><course>355.078857</course><hAcc>1.244424</hAcc><vAcc>0.713818</vAcc></extensions></trkpt>
      <trkpt lon="-76.448042" lat="39.344758"><ele>19.561483</ele><time>2021-12-25T20:35:54Z</time><extensions><speed>0.213421</speed><course>355.078857</course><hAcc>1.233811</hAcc><vAcc>0.712407</vAcc></extensions></trkpt>
      <trkpt lon="-76.448043" lat="39.344760"><ele>19.573996</ele><time>2021-12-25T20:35:55Z</time><extensions><speed>0.176639</speed><course>355.078857</course><hAcc>1.220245</hAcc><vAcc>0.710956</vAcc></extensions></trkpt>
      <trkpt lon="-76.448043" lat="39.344762"><ele>19.585045</ele><time>2021-12-25T20:35:56Z</time><extensions><speed>0.168782</speed><course>355.078857</course><hAcc>1.206055</hAcc><vAcc>0.709506</vAcc></extensions></trkpt>
      <trkpt lon="-76.448043" lat="39.344765"><ele>19.594639</ele><time>2021-12-25T20:35:57Z</time><extensions><speed>0.166680</speed><course>355.078857</course><hAcc>1.193447</hAcc><vAcc>0.708075</vAcc></extensions></trkpt>
      <trkpt lon="-76.448043" lat="39.344767"><ele>19.602827</ele><time>2021-12-25T20:35:58Z</time><extensions><speed>0.158467</speed><course>355.078857</course><hAcc>1.183763</hAcc><vAcc>0.706672</vAcc></extensions></trkpt>
      <trkpt lon="-76.448043" lat="39.344768"><ele>19.609705</ele><time>2021-12-25T20:35:59Z</time><extensions><speed>0.126468</speed><course>355.078857</course><hAcc>1.178566</hAcc><vAcc>0.705339</vAcc></extensions></trkpt>
      <trkpt lon="-76.448044" lat="39.344770"><ele>19.615374</ele><time>2021-12-25T20:36:00Z</time><extensions><speed>0.122557</speed><course>355.078857</course><hAcc>1.170252</hAcc><vAcc>0.704089</vAcc></extensions></trkpt>
      <trkpt lon="-76.448044" lat="39.344771"><ele>19.619953</ele><time>2021-12-25T20:36:01Z</time><extensions><speed>0.102182</speed><course>355.078857</course><hAcc>1.165817</hAcc><vAcc>0.702930</vAcc></extensions></trkpt>
      <trkpt lon="-76.448044" lat="39.344773"><ele>19.623568</ele><time>2021-12-25T20:36:02Z</time><extensions><speed>0.093192</speed><course>355.078857</course><hAcc>1.160299</hAcc><vAcc>0.701862</vAcc></extensions></trkpt>
      <trkpt lon="-76.448044" lat="39.344774"><ele>19.626343</ele><time>2021-12-25T20:36:03Z</time><extensions><speed>0.085482</speed><course>355.078857</course><hAcc>1.155703</hAcc><vAcc>0.700871</vAcc></extensions></trkpt>
      <trkpt lon="-76.448044" lat="39.344775"><ele>19.628395</ele><time>2021-12-25T20:36:04Z</time><extensions><speed>0.079528</speed><course>355.078857</course><hAcc>1.151815</hAcc><vAcc>0.699946</vAcc></extensions></trkpt>
      <trkpt lon="-76.448044" lat="39.344776"><ele>19.629843</ele><time>2021-12-25T20:36:05Z</time><extensions><speed>0.078693</speed><course>355.078857</course><hAcc>1.148092</hAcc><vAcc>0.699062</vAcc></extensions></trkpt>
      <trkpt lon="-76.448044" lat="39.344777"><ele>19.630785</ele><time>2021-12-25T20:36:06Z</time><extensions><speed>0.066481</speed><course>355.078857</course><hAcc>1.148302</hAcc><vAcc>0.698168</vAcc></extensions></trkpt>
      <trkpt lon="-76.448044" lat="39.344777"><ele>19.631321</ele><time>2021-12-25T20:36:07Z</time><extensions><speed>0.060296</speed><course>355.078857</course><hAcc>1.146979</hAcc><vAcc>0.697242</vAcc></extensions></trkpt>
      <trkpt lon="-76.448045" lat="39.344778"><ele>19.631531</ele><time>2021-12-25T20:36:08Z</time><extensions><speed>0.064747</speed><course>355.078857</course><hAcc>1.143676</hAcc><vAcc>0.696271</vAcc></extensions></trkpt>
      <trkpt lon="-76.448045" lat="39.344779"><ele>19.631493</ele><time>2021-12-25T20:36:09Z</time><extensions><speed>0.054653</speed><course>355.078857</course><hAcc>1.146493</hAcc><vAcc>0.695252</vAcc></extensions></trkpt>
      <trkpt lon="-76.448045" lat="39.344780"><ele>19.631268</ele><time>2021-12-25T20:36:10Z</time><extensions><speed>0.046038</speed><course>355.078857</course><hAcc>1.148392</hAcc><vAcc>0.694188</vAcc></extensions></trkpt>
      <trkpt lon="-76.448045" lat="39.344780"><ele>19.630909</ele><time>2021-12-25T20:36:11Z</time><extensions><speed>0.045395</speed><course>355.078857</course><hAcc>1.147429</hAcc><vAcc>0.693084</vAcc></extensions></trkpt>
      <trkpt lon="-76.448045" lat="39.344781"><ele>19.630463</ele><time>2021-12-25T20:36:12Z</time><extensions><speed>0.042531</speed><course>355.078857</course><hAcc>1.148548</hAcc><vAcc>0.691953</vAcc></extensions></trkpt>
      <trkpt lon="-76.448045" lat="39.344781"><ele>19.629967</ele><time>2021-12-25T20:36:13Z</time><extensions><speed>0.040738</speed><course>355.078857</course><hAcc>1.149937</hAcc><vAcc>0.690797</vAcc></extensions></trkpt>
      <trkpt lon="-76.448045" lat="39.344782"><ele>19.629446</ele><time>2021-12-25T20:36:14Z</time><extensions><speed>0.038502</speed><course>355.078857</course><hAcc>1.152148</hAcc><vAcc>0.689623</vAcc></extensions></trkpt>
      <trkpt lon="-76.448045" lat="39.344782"><ele>19.628927</ele><time>2021-12-25T20:36:15Z</time><extensions><speed>0.035609</speed><course>355.078857</course><hAcc>1.155066</hAcc><vAcc>0.688401</vAcc></extensions></trkpt>
      <trkpt lon="-76.448045" lat="39.344782"><ele>19.628426</ele><time>2021-12-25T20:36:16Z</time><extensions><speed>0.032060</speed><course>355.078857</course><hAcc>1.158325</hAcc><vAcc>0.687136</vAcc></extensions></trkpt>
      <trkpt lon="-76.448045" lat="39.344783"><ele>19.627953</ele><time>2021-12-25T20:36:17Z</time><extensions><speed>0.028945</speed><course>355.078857</course><hAcc>1.161077</hAcc><vAcc>0.685842</vAcc></extensions></trkpt>
      <trkpt lon="-76.448045" lat="39.344783"><ele>19.627518</ele><time>2021-12-25T20:36:18Z</time><extensions><speed>0.025754</speed><course>355.078857</course><hAcc>1.163631</hAcc><vAcc>0.684503</vAcc></extensions></trkpt>
      <trkpt lon="-76.448045" lat="39.344783"><ele>19.627127</ele><time>2021-12-25T20:36:20Z</time><extensions><speed>0.024684</speed><course>355.078857</course><hAcc>1.164535</hAcc><vAcc>0.683085</vAcc></extensions></trkpt>
      <trkpt lon="-76.448045" lat="39.344784"><ele>19.626780</ele><time>2021-12-25T20:36:21Z</time><extensions><speed>0.022528</speed><course>355.078857</course><hAcc>1.166715</hAcc><vAcc>0.681569</vAcc></extensions></trkpt>
      <trkpt lon="-76.448045" lat="39.344784"><ele>19.626476</ele><time>2021-12-25T20:36:22Z</time><extensions><speed>0.020383</speed><course>355.078857</course><hAcc>1.168738</hAcc><vAcc>0.679923</vAcc></extensions></trkpt>
      <trkpt lon="-76.448045" lat="39.344784"><ele>19.626219</ele><time>2021-12-25T20:36:23Z</time><extensions><speed>0.018622</speed><course>355.078857</course><hAcc>1.170055</hAcc><vAcc>0.678111</vAcc></extensions></trkpt>
      <trkpt lon="-76.448045" lat="39.344784"><ele>19.626001</ele><time>2021-12-25T20:36:24Z</time><extensions><speed>0.017123</speed><course>355.078857</course><hAcc>1.170832</hAcc><vAcc>0.676095</vAcc></extensions></trkpt>
      <trkpt lon="-76.448045" lat="39.344785"><ele>19.625822</ele><time>2021-12-25T20:36:25Z</time><extensions><speed>0.015676</speed><course>355.078857</course><hAcc>1.171093</hAcc><vAcc>0.673841</vAcc></extensions></trkpt>
      <trkpt lon="-76.448045" lat="39.344785"><ele>19.625679</ele><time>2021-12-25T20:36:26Z</time><extensions><speed>0.015405</speed><course>355.078857</course><hAcc>1.169593</hAcc><vAcc>0.671332</vAcc></extensions></trkpt>
      <trkpt lon="-76.448045" lat="39.344785"><ele>19.625565</ele><time>2021-12-25T20:36:27Z</time><extensions><speed>0.012196</speed><course>355.078857</course><hAcc>1.172278</hAcc><vAcc>0.668569</vAcc></extensions></trkpt>
      <trkpt lon="-76.448045" lat="39.344785"><ele>19.625479</ele><time>2021-12-25T20:36:28Z</time><extensions><speed>0.009684</speed><course>355.078857</course><hAcc>1.172316</hAcc><vAcc>0.665573</vAcc></extensions></trkpt>
      <trkpt lon="-76.448045" lat="39.344785"><ele>19.625414</ele><time>2021-12-25T20:36:29Z</time><extensions><speed>0.008567</speed><course>355.078857</course><hAcc>1.169290</hAcc><vAcc>0.662350</vAcc></extensions></trkpt>
      <trkpt lon="-76.448045" lat="39.344785"><ele>19.625368</ele><time>2021-12-25T20:36:30Z</time><extensions><speed>0.007828</speed><course>355.078857</course><hAcc>1.166082</hAcc><vAcc>0.658969</vAcc></extensions></trkpt>
      <trkpt lon="-76.448045" lat="39.344785"><ele>19.625340</ele><time>2021-12-25T20:36:31Z</time><extensions><speed>0.007191</speed><course>355.078857</course><hAcc>1.163445</hAcc><vAcc>0.655541</vAcc></extensions></trkpt>
      <trkpt lon="-76.448045" lat="39.344785"><ele>19.625324</ele><time>2021-12-25T20:36:32Z</time><extensions><speed>0.006789</speed><course>355.078857</course><hAcc>1.160952</hAcc><vAcc>0.652196</vAcc></extensions></trkpt>
      <trkpt lon="-76.448045" lat="39.344786"><ele>19.625319</ele><time>2021-12-25T20:36:33Z</time><extensions><speed>0.006870</speed><course>355.078857</course><hAcc>1.158033</hAcc><vAcc>0.649085</vAcc></extensions></trkpt>
      <trkpt lon="-76.448045" lat="39.344786"><ele>19.625320</ele><time>2021-12-25T20:36:34Z</time><extensions><speed>0.006527</speed><course>355.078857</course><hAcc>1.157345</hAcc><vAcc>0.646350</vAcc></extensions></trkpt>
      <trkpt lon="-76.448045" lat="39.344786"><ele>19.625326</ele><time>2021-12-25T20:36:35Z</time><extensions><speed>0.005194</speed><course>355.078857</course><hAcc>1.159372</hAcc><vAcc>0.644119</vAcc></extensions></trkpt>
      <trkpt lon="-76.448045" lat="39.344786"><ele>19.625338</ele><time>2021-12-25T20:36:36Z</time><extensions><speed>0.004714</speed><course>355.078857</course><hAcc>1.157451</hAcc><vAcc>0.642484</vAcc></extensions></trkpt>
      <trkpt lon="-76.448045" lat="39.344786"><ele>19.625351</ele><time>2021-12-25T20:36:37Z</time><extensions><speed>0.004338</speed><course>355.078857</course><hAcc>1.155286</hAcc><vAcc>0.641491</vAcc></extensions></trkpt>
      <trkpt lon="-76.448045" lat="39.344786"><ele>19.625366</ele><time>2021-12-25T20:36:38Z</time><extensions><speed>0.004000</speed><course>355.078857</course><hAcc>1.153355</hAcc><vAcc>0.641137</vAcc></extensions></trkpt>
      <trkpt lon="-76.448045" lat="39.344786"><ele>19.625381</ele><time>2021-12-25T20:36:39Z</time><extensions><speed>0.003746</speed><course>355.078857</course><hAcc>1.151507</hAcc><vAcc>0.641384</vAcc></extensions></trkpt>
      <trkpt lon="-76.448045" lat="39.344786"><ele>19.625397</ele><time>2021-12-25T20:36:40Z</time><extensions><speed>0.003425</speed><course>355.078857</course><hAcc>1.150412</hAcc><vAcc>0.642162</vAcc></extensions></trkpt>
      <trkpt lon="-76.448045" lat="39.344786"><ele>19.625410</ele><time>2021-12-25T20:36:41Z</time><extensions><speed>0.003124</speed><course>355.078857</course><hAcc>1.149443</hAcc><vAcc>0.643376</vAcc></extensions></trkpt>
      <trkpt lon="-76.448045" lat="39.344786"><ele>19.625423</ele><time>2021-12-25T20:36:42Z</time><extensions><speed>0.002880</speed><course>355.078857</course><hAcc>1.148366</hAcc><vAcc>0.644928</vAcc></extensions></trkpt>
      <trkpt lon="-76.448045" lat="39.344786"><ele>19.625437</ele><time>2021-12-25T20:36:43Z</time><extensions><speed>0.002746</speed><course>355.078857</course><hAcc>1.147058</hAcc><vAcc>0.646719</vAcc></extensions></trkpt>
      <trkpt lon="-76.448045" lat="39.344786"><ele>19.625446</ele><time>2021-12-25T20:36:44Z</time><extensions><speed>0.002518</speed><course>355.078857</course><hAcc>1.146910</hAcc><vAcc>0.648668</vAcc></extensions></trkpt>
      <trkpt lon="-76.448045" lat="39.344786"><ele>19.625456</ele><time>2021-12-25T20:36:45Z</time><extensions><speed>0.002254</speed><course>355.078857</course><hAcc>1.147019</hAcc><vAcc>0.650718</vAcc></extensions></trkpt>
      <trkpt lon="-76.448045" lat="39.344786"><ele>19.625463</ele><time>2021-12-25T20:36:46Z</time><extensions><speed>0.002224</speed><course>355.078857</course><hAcc>1.145450</hAcc><vAcc>0.652831</vAcc></extensions></trkpt>
      <trkpt lon="-76.448045" lat="39.344786"><ele>19.625471</ele><time>2021-12-25T20:36:47Z</time><extensions><speed>0.002052</speed><course>355.078857</course><hAcc>1.145551</hAcc><vAcc>0.654963</vAcc></extensions></trkpt>
      <trkpt lon="-76.448045" lat="39.344786"><ele>19.625477</ele><time>2021-12-25T20:36:48Z</time><extensions><speed>0.001929</speed><course>355.078857</course><hAcc>1.145214</hAcc><vAcc>0.657078</vAcc></extensions></trkpt>
      <trkpt lon="-76.448045" lat="39.344786"><ele>19.625481</ele><time>2021-12-25T20:36:49Z</time><extensions><speed>0.001693</speed><course>355.078857</course><hAcc>1.145807</hAcc><vAcc>0.659165</vAcc></extensions></trkpt>
      <trkpt lon="-76.448045" lat="39.344786"><ele>19.625484</ele><time>2021-12-25T20:36:50Z</time><extensions><speed>0.001480</speed><course>355.078857</course><hAcc>1.145581</hAcc><vAcc>0.661187</vAcc></extensions></trkpt>
      <trkpt lon="-76.448045" lat="39.344786"><ele>19.625486</ele><time>2021-12-25T20:36:51Z</time><extensions><speed>0.001402</speed><course>355.078857</course><hAcc>1.143594</hAcc><vAcc>0.663106</vAcc></extensions></trkpt>
      <trkpt lon="-76.448045" lat="39.344786"><ele>19.625488</ele><time>2021-12-25T20:36:52Z</time><extensions><speed>0.001314</speed><course>355.078857</course><hAcc>1.142170</hAcc><vAcc>0.664913</vAcc></extensions></trkpt>
      <trkpt lon="-76.448045" lat="39.344786"><ele>19.625490</ele><time>2021-12-25T20:36:53Z</time><extensions><speed>0.001149</speed><course>355.078857</course><hAcc>1.141964</hAcc><vAcc>0.666581</vAcc></extensions></trkpt>
      <trkpt lon="-76.448045" lat="39.344786"><ele>19.625492</ele><time>2021-12-25T20:36:54Z</time><extensions><speed>0.001052</speed><course>355.078857</course><hAcc>1.140582</hAcc><vAcc>0.668089</vAcc></extensions></trkpt>
      <trkpt lon="-76.448045" lat="39.344786"><ele>19.625492</ele><time>2021-12-25T20:36:55Z</time><extensions><speed>0.000967</speed><course>355.078857</course><hAcc>1.139256</hAcc><vAcc>0.669419</vAcc></extensions></trkpt>
      <trkpt lon="-76.448045" lat="39.344786"><ele>19.625492</ele><time>2021-12-25T20:36:56Z</time><extensions><speed>0.000889</speed><course>355.078857</course><hAcc>1.138110</hAcc><vAcc>0.670567</vAcc></extensions></trkpt>
      <trkpt lon="-76.448045" lat="39.344786"><ele>19.625492</ele><time>2021-12-25T20:36:57Z</time><extensions><speed>0.000818</speed><course>355.078857</course><hAcc>1.137138</hAcc><vAcc>0.671526</vAcc></extensions></trkpt>
      <trkpt lon="-76.448045" lat="39.344786"><ele>19.625492</ele><time>2021-12-25T20:36:57Z</time><extensions><speed>0.000752</speed><course>355.078857</course><hAcc>1.136315</hAcc><vAcc>0.672298</vAcc></extensions></trkpt>
      <trkpt lon="-76.448045" lat="39.344786"><ele>19.625492</ele><time>2021-12-25T20:36:58Z</time><extensions><speed>0.000692</speed><course>355.078857</course><hAcc>1.135655</hAcc><vAcc>0.672873</vAcc></extensions></trkpt>
      <trkpt lon="-76.448045" lat="39.344786"><ele>19.625490</ele><time>2021-12-25T20:36:59Z</time><extensions><speed>0.000636</speed><course>355.078857</course><hAcc>1.135145</hAcc><vAcc>0.673254</vAcc></extensions></trkpt>
      <trkpt lon="-76.448045" lat="39.344786"><ele>19.625490</ele><time>2021-12-25T20:37:00Z</time><extensions><speed>0.000584</speed><course>355.078857</course><hAcc>1.134787</hAcc><vAcc>0.673447</vAcc></extensions></trkpt>
      <trkpt lon="-76.448045" lat="39.344786"><ele>19.625490</ele><time>2021-12-25T20:37:01Z</time><extensions><speed>0.000537</speed><course>355.078857</course><hAcc>1.134563</hAcc><vAcc>0.673472</vAcc></extensions></trkpt>
      <trkpt lon="-76.448045" lat="39.344786"><ele>19.625490</ele><time>2021-12-25T20:37:02Z</time><extensions><speed>0.000494</speed><course>355.078857</course><hAcc>1.134491</hAcc><vAcc>0.673340</vAcc></extensions></trkpt>
      <trkpt lon="-76.448045" lat="39.344786"><ele>19.625488</ele><time>2021-12-25T20:37:03Z</time><extensions><speed>0.000454</speed><course>355.078857</course><hAcc>1.134529</hAcc><vAcc>0.673080</vAcc></extensions></trkpt>
      <trkpt lon="-76.448045" lat="39.344786"><ele>19.625488</ele><time>2021-12-25T20:37:04Z</time><extensions><speed>0.000418</speed><course>355.078857</course><hAcc>1.134576</hAcc><vAcc>0.672719</vAcc></extensions></trkpt>
      <trkpt lon="-76.448045" lat="39.344786"><ele>19.625488</ele><time>2021-12-25T20:37:05Z</time><extensions><speed>0.000398</speed><course>355.078857</course><hAcc>1.134200</hAcc><vAcc>0.672289</vAcc></extensions></trkpt>
      <trkpt lon="-76.448045" lat="39.344786"><ele>19.625488</ele><time>2021-12-25T20:37:06Z</time><extensions><speed>0.000370</speed><course>355.078857</course><hAcc>1.134550</hAcc><vAcc>0.671796</vAcc></extensions></trkpt>
      <trkpt lon="-76.448045" lat="39.344786"><ele>19.625488</ele><time>2021-12-25T20:37:07Z</time><extensions><speed>0.000325</speed><course>355.078857</course><hAcc>1.135727</hAcc><vAcc>0.671236</vAcc></extensions></trkpt>
      <trkpt lon="-76.448045" lat="39.344786"><ele>19.625486</ele><time>2021-12-25T20:37:08Z</time><extensions><speed>0.000298</speed><course>355.078857</course><hAcc>1.135659</hAcc><vAcc>0.670608</vAcc></extensions></trkpt>
      <trkpt lon="-76.448045" lat="39.344786"><ele>19.625486</ele><time>2021-12-25T20:37:09Z</time><extensions><speed>0.000274</speed><course>355.078857</course><hAcc>1.135527</hAcc><vAcc>0.669899</vAcc></extensions></trkpt>
      <trkpt lon="-76.448045" lat="39.344786"><ele>19.625486</ele><time>2021-12-25T20:37:10Z</time><extensions><speed>0.000242</speed><course>355.078857</course><hAcc>1.151208</hAcc><vAcc>0.671791</vAcc></extensions></trkpt>
      <trkpt lon="-76.448045" lat="39.344787"><ele>19.625486</ele><time>2021-12-25T20:37:11Z</time><extensions><speed>0.000212</speed><course>355.078857</course><hAcc>1.169532</hAcc><vAcc>0.675979</vAcc></extensions></trkpt>
      <trkpt lon="-76.448045" lat="39.344787"><ele>19.625486</ele><time>2021-12-25T20:37:12Z</time><extensions><speed>0.000184</speed><course>355.078857</course><hAcc>1.190861</hAcc><vAcc>0.684413</vAcc></extensions></trkpt>
      <trkpt lon="-76.448045" lat="39.344787"><ele>19.625486</ele><time>2021-12-25T20:37:13Z</time><extensions><speed>0.000157</speed><course>355.078857</course><hAcc>1.215597</hAcc><vAcc>0.699934</vAcc></extensions></trkpt>
      <trkpt lon="-76.448045" lat="39.344787"><ele>19.625486</ele><time>2021-12-25T20:37:14Z</time><extensions><speed>0.000131</speed><course>355.078857</course><hAcc>1.244192</hAcc><vAcc>0.726294</vAcc></extensions></trkpt>
      <trkpt lon="-76.448045" lat="39.344787"><ele>19.625486</ele><time>2021-12-25T20:37:15Z</time><extensions><speed>0.000106</speed><course>355.078857</course><hAcc>1.277146</hAcc><vAcc>0.767934</vAcc></extensions></trkpt>
      <trkpt lon="-76.448045" lat="39.344787"><ele>19.625486</ele><time>2021-12-25T20:37:16Z</time><extensions><speed>0.000081</speed><course>355.078857</course><hAcc>1.315007</hAcc><vAcc>0.829433</vAcc></extensions></trkpt>
      <trkpt lon="-76.448045" lat="39.344787"><ele>19.625486</ele><time>2021-12-25T20:37:17Z</time><extensions><speed>0.000058</speed><course>355.078857</course><hAcc>1.358356</hAcc><vAcc>0.914790</vAcc></extensions></trkpt>
      <trkpt lon="-76.448045" lat="39.344787"><ele>19.625486</ele><time>2021-12-25T20:37:18Z</time><extensions><speed>0.000035</speed><course>355.078857</course><hAcc>1.407788</hAcc><vAcc>1.026796</vAcc></extensions></trkpt>
      <trkpt lon="-76.448045" lat="39.344787"><ele>19.625486</ele><time>2021-12-25T20:37:19Z</time><extensions><speed>0.000014</speed><course>355.078857</course><hAcc>1.465734</hAcc><vAcc>1.166728</vAcc></extensions></trkpt>
    </trkseg>
  </trk>
</gpx>